X,Y,FID,LMID,LMNAME,LMADDRESS,LMCID,SECURITY,FIRE_ID,POLICE_ID,CITY_ID,CUSTID,CITY,FIRE,POLICE,TOW_ID,REPORT_DIS,MAP_PAGE_I,LMCNAME
-8927901.00737671,2970208.90444813,1,503,MIAMI PRKG LOT 29,751 SW 4TH AVE,43,0,3162,P732,MIAMI,0,0,0,0, ,R247,36,Parking Garage/Lot
-8929833.43535789,2975544.5997179,2,1,INTERNAL AFFAIRS-IA,1313 NW 36TH ST,45,0,1157,P412,MIAMI,0,0,0,0, ,R083,17,Police Facility
-8928182.59672849,2975024.28218248,3,504,ROBERT E LEE JR HIGH,3100 NW 5TH AVE,54,0,1291,P413,MIAMI,0,0,0,0, ,R107,21,School
-8930136.89096796,2978259.26437572,4,2,AFRICAN SQUARE PARK,1400 NW 62ND ST,42,0,510,P113,MIAMI,0,0,0,0, ,R038,12,Park
-8929991.03943123,2970100.87882845,5,505,MIAMI PRKG LOT 35,1499 SW 8TH ST,43,0,3205,P733,MIAMI,0,0,0,0, ,R242,35,Parking Garage/Lot
-8927337.57887875,2971136.93758855,6,506,DADE FEDERAL BLDG,101 FLAGLER ST,18,0,2584,P446,MIAMI,0,0,0,0, ,R169,36,Court House
-8930671.06418603,2974176.39603519,7,3,COMSTOCK ELEM,2420 NW 18TH AVE,54,0,1487,P415,MIAMI,0,0,0,0, ,R112,19,School
-8932455.73582352,2965442.43056269,8,507,SENOR FROGS REST,3008 GRAND AVE,52,0,4444,P752,MIAMI,0,0,0,0, ,R324,46,Restaurant
-8926373.75912364,2977161.51441847,9,508,BAYSIDE INN,5101 BISCAYNE BLVD,28,0,799,P134,MIAMI,0,0,0,0, ,R060,15,Hotel/Motel
-8928371.71418886,2978341.54112474,10,4,EDISON LIBRARY,531 NW 62ND ST,31,0,364,P123,MIAMI,0,0,0,0, ,R034,13,Library
-8926729.36442033,2971120.52062734,11,509,ARGENTINA CONSULATE,25 SE 2ND AVE,16,0,2633,P446,MIAMI,0,0,0,0, ,R174,36,Consulate/Embassy
-8929615.630389,2976587.28420159,12,5,ALLAPATTAH ELEM,4700 NW 12TH AVE,54,0,854,P115,MIAMI,0,0,0,0, ,R063,17,School
-8926729.36442033,2971120.52062734,13,510,BAHAMAS CONSULATE,25 SE 2ND AVE,16,0,2633,P446,MIAMI,0,0,0,0, ,R174,36,Consulate/Embassy
-8926729.36442033,2971120.52062734,14,511,BOLIVIA CONSULATE,25 SE 2ND AVE,16,0,2633,P446,MIAMI,0,0,0,0, ,R174,36,Consulate/Embassy
-8936572.8215787,2971652.28941279,15,6,ANTONIO MACEO PARK,5115 NW 7TH ST,42,0,2398,P711,MIAMI,0,0,0,0, ,R201,28,Park
-8933216.30002838,2970218.22053206,16,7,AUBURNDALE ELEM,3255 SW 6TH ST,54,0,3146,P717,MIAMI,0,0,0,0, ,R234,33,School
-8926469.7955661,2971277.11839303,17,512,BRAZIL CONSULATE,100 BISCAYNE BLVD,16,0,2488,P446,MIAMI,0,0,0,0, ,R170,36,Consulate/Embassy
-8927903.73698214,2972685.98706594,18,8,CULMER/OVERTOWN LIBR,350 NW 13TH ST,31,0,1933,P432,MIAMI,0,0,0,0, ,R154,23,Library
-8926729.36442033,2971120.52062734,19,513,CHILE CONSULATE,25 SE 2ND AVE,16,0,2633,P446,MIAMI,0,0,0,0, ,R174,36,Consulate/Embassy
-8927301.78000957,2975256.68800657,20,9,BAY HEIGHTS,3300 MIAMI AVE,51,0,1244,P422,MIAMI,0,0,0,0, ,R096,21,Residential Community
-8926514.73144046,2976417.81185727,21,10,BAY POINT,4501 BISCAYNE BLVD,51,0,827,P134,MIAMI,0,0,0,0, ,R069,15,Residential Community
-8926410.19719077,2971280.76101313,22,11,BAYFRONT PARK,101 BISCAYNE BLVD,42,0,2257,P446,MIAMI,0,0,0,0, ,R171,36,Park
-8930701.00770749,2975400.89896631,23,12,ALLAPATTAH LIBRARY,1799 NW 35TH ST,31,0,1185,P412,MIAMI,0,0,0,0, ,R089,19,Library
-8926659.44342846,2972422.51436613,24,13,BICENTENNIAL PARK,1075 BISCAYNE BLVD,42,0,1968,P443,MIAMI,0,0,0,0, ,R161,23,Park
-8934223.65746592,2965154.93999665,25,14,MFD FIRE COLLEGE,3425 JEFFERSON ST,22,0,4134,P754,MIAMI,0,0,0,0, ,R325,47,Fire Facility
-8926191.2401366,2980252.5040254,26,15,BISCAYNE SHOPPING PZ,561 NE 79TH ST,55,0,74,P131,MIAMI,0,0,0,0, ,R005,9,Shopping Center
-8926720.49123905,2970571.0412126,27,16,BRICKELL BRIDGE,498 SE 2ND AVE,9,0,2974,P741,MIAMI,0,0,0,0, ,R249,36,Bridge
-8930184.21527357,2976461.64836237,28,17,FIRE STATION 12,1455 NW 46TH ST,23,0,854,P115,MIAMI,0,0,0,0, ,R062,17,Fire Station
-8926657.02557783,2970108.98423717,29,18,BRICKELL KEY BRIDGE,498 SE 8TH ST,9,0,3249,P741,MIAMI,0,0,0,0, ,R262,37,Bridge
-8926703.48141167,2970562.06566397,30,19,BRICKELL PARK,401 BRICKELL AVE,42,0,2978,P741,MIAMI,0,0,0,0, ,R249,36,Park
-8926933.31069936,2971157.24423093,31,514,COLUMBIA CONSULATE,14 NE 1ST AVE,16,0,2574,P446,MIAMI,0,0,0,0, ,R169,36,Consulate/Embassy
-8926726.08013651,2971034.25821902,32,515,COSTA RICA CONSULATE,200 SE 1ST ST,16,0,2703,P446,MIAMI,0,0,0,0, ,R174,36,Consulate/Embassy
-8931446.34825094,2969442.23546563,33,20,BRYAN PARK,2301 SW 13TH ST,42,0,3587,P744,MIAMI,0,0,0,0, ,R254,39,Park
-8926726.79706727,2970725.97994299,34,21,JAMES L KNIGHT CNTR,400 SE 2ND AVE,44,0,2852,P445,MIAMI,0,0,0,0, ,R173,36,Theater/Performing Arts
-8927171.68547424,2971141.20139231,35,516,DENMARK CONSULATE,25 FLAGLER ST,16,0,2579,P446,MIAMI,0,0,0,0, ,R169,36,Consulate/Embassy
-8926864.79948862,2969854.63001564,36,517,DOMINICAN CONSULATE,1038 BRICKELL AVE,16,0,3392,P741,MIAMI,0,0,0,0, ,R262,37,Consulate/Embassy
-8929730.58039783,2972798.35455686,37,22,CEDARS HOSPITAL ER,1321 NW 14TH ST,27,0,1805,P417,MIAMI,0,0,0,0, ,R137,24,Hospital
-8926729.36442033,2971120.52062734,38,518,ECUADOR CONSULATE,25 SE 2ND AVE,16,0,2633,P446,MIAMI,0,0,0,0, ,R174,36,Consulate/Embassy
-8934063.49680057,2971734.17971027,39,23,CENTRAL SHOPPING PZ,3711 NW 7TH ST,55,0,2181,P712,MIAMI,0,0,0,0, ,R188,27,Shopping Center
-8926600.95242465,2970999.09982417,40,519,EL SALVADOR CONSULAT,150 SE 3RD AVE,16,0,2703,P446,MIAMI,0,0,0,0, ,R174,36,Consulate/Embassy
-8928641.17281363,2974643.14090331,41,24,NATIONAL GUARD ARMOR,700 NW 28TH ST,36,0,1412,P418,MIAMI,0,0,0,0, ,R116,20,Military Facility
-8926707.79974556,2969833.8950257,42,520,BRITISH CONSULATE,1001 BRICKELL BAY DR,16,0,3274,P741,MIAMI,0,0,0,0, ,R262,37,Consulate/Embassy
-8929310.1814052,2972358.86876384,43,25,HUMAN RESOURCES,1145 NW 11TH ST,11,0,2009,P433,MIAMI,0,0,0,0, ,R148,24,Business
-8926933.31069936,2971157.24423093,44,521,HONDURAS CONSULATE,14 NE 1ST AVE,16,0,2574,P446,MIAMI,0,0,0,0, ,R169,36,Consulate/Embassy
-8929496.61634231,2973499.06732487,45,26,CITY RADIO SHOP,1901 NW 12TH AVE,65,0,1660,P418,MIAMI,0,0,0,0, ,R138,24,Other
-8926726.08013651,2971034.25821902,46,522,ITALY CONSULATE,200 SE 1ST ST,16,0,2703,P446,MIAMI,0,0,0,0, ,R174,36,Consulate/Embassy
-8929486.07725402,2973020.3792929,47,27,CIVIC CENTER MR STA,1501 NW 12TH AVE,35,0,1707,P418,MIAMI,0,0,0,0, ,R138,24,MetroRail Station
-8926729.36442033,2971120.52062734,48,523,JAMAICA CONSULATE,25 SE 2ND AVE,16,0,2633,P446,MIAMI,0,0,0,0, ,R174,36,Consulate/Embassy
-8926154.66635794,2970165.98398345,49,28,BRICKELL KEY,500 BRICKELL KEY DR,65,0,3014,P741,MIAMI,0,0,0,0, ,R335,36,Other
-8926661.01259699,2969692.02619447,50,524,NETHERLANDS CONSULAT,1111 BAYSHORE DR,16,0,3274,P741,MIAMI,0,0,0,0, ,R262,37,Consulate/Embassy
-8929205.33264538,2974868.83174488,51,29,SANTA CLARA ELEM,1051 NW 29TH TER,54,0,1341,P413,MIAMI,0,0,0,0, ,R104,20,School
-8926729.36442033,2971120.52062734,52,525,NICARAGUA CONSULATE,25 SE 2ND AVE,16,0,2633,P446,MIAMI,0,0,0,0, ,R174,36,Consulate/Embassy
-8930080.63076849,2975807.40619514,53,30,134X,EB 112 FROM 14 AV,48,0,1104,P412,MIAMI,0,0,0,0, ,R082,17,Ramp
-8926600.95242465,2970999.09982417,54,526,PANAMA CONSULATE,150 SE 3RD AVE,16,0,2703,P446,MIAMI,0,0,0,0, ,R174,36,Consulate/Embassy
-8931378.61599461,2975739.40001002,55,31,130X,EB 112 FROM 22 AV,48,0, , , ,0,0,0,0, , ,19,Ramp
-8926729.36442033,2971120.52062734,56,527,PERU CONSULATE,25 SE 2ND AVE,16,0,2633,P446,MIAMI,0,0,0,0, ,R174,36,Consulate/Embassy
-8926469.7955661,2971277.11839303,57,528,VENZUELA CONSULATE,100 BISCAYNE BLVD,16,0,2488,P446,MIAMI,0,0,0,0, ,R170,36,Consulate/Embassy
-8931858.04074848,2973629.38305674,58,529,COMMISSIONER REGALAD,2424 NW 20TH ST,51,0,1685,P416,MIAMI,0,0,0,0, ,R134,19,Residential Community
-8927621.8979765,2969575.21323367,59,530,HAITIAN CONSULATE,259 SW 13TH ST,16,0,3522,P742,MIAMI,0,0,0,0, ,R261,37,Consulate/Embassy
-8928889.00051082,2969404.03541333,60,531,COMMISSIONER SANCHEZ,2411 SW 7TH AVE,51,0,3620,P742,MIAMI,0,0,0,0, ,R266,38,Residential Community
-8925441.1312873,2967680.35913177,61,532,WM POWELL BRIDGE,3000 RICKENBACKER CSWY,9,0,4222,P741,MIAMI,0,0,0,0, ,R334,52,Bridge
-8922977.90302832,2965485.64867443,62,533,BEAR CUT BRIDGE,4699 RICKENBACKER CSWY,9,0, , , ,0,0,0,0, , ,52,Bridge
-8932468.16336145,2966132.13126424,63,534,BLANCHE PARK,3001 SHIPPING AVE,42,0,4392,P755,MIAMI,0,0,0,0, ,R316,46,Park
-8928565.57171573,2976185.7956675,64,535,455X,SB I95 TO 112,48,0,941,P114,MIAMI,0,0,0,0, ,R075,16,Ramp
-8927150.0634116,2972089.12434668,65,536,ARENA TOWERS APTS,800 MIAMI AVE,3,0,2154,P443,MIAMI,0,0,0,0, ,R160,23,Apartment
-8926656.27759751,2975649.57034426,66,537,DENNY'S REST,3600 BISCAYNE BLVD,52,0,1117,P423,MIAMI,0,0,0,0, ,R097,15,Restaurant
-8931353.7954559,2966132.0199526,67,538,CORAL REEF YCHT CLUB,2484 BAYSHORE DR,40,0,4374,P753,MIAMI,0,0,0,0, ,R319,45,Night Club
-8932257.933443,2965229.71920764,68,539,COCONUT GRV SLG CLUB,2990 BAYSHORE DR,40,0,4450,P752,MIAMI,0,0,0,0, ,R324,46,Night Club
-8928445.0821185,2979256.38368369,69,540,NUWAYS TOWING,551 NW 71ST ST,11,0,247,P121,MIAMI,0,0,0,0, ,R015,10,Business
-8928534.40042068,2976906.75211323,70,541,456X,SB I95 TO 112 CP,48,0,775,P125,FHP MIAMI,0,0,0,0, ,R066,16,Ramp
-8926052.37128112,2978846.38797076,71,542,BISCAYNE BL MINI STA,6599 BISCAYNE BLVD,39,0,182,P133,MIAMI,0,0,0,0, ,R029,14,NET Office
-8926809.09734534,2976935.54583099,72,543,ARCHBISHOP CURLEY,300 NE 50TH ST,54,0,802,P125,MIAMI,0,0,0,0, ,R068,15,School
-8926076.76479289,2978272.7135958,73,544,CUSHMAN SCHOOL,592 NE 60TH ST,54,0,504,P132,MIAMI,0,0,0,0, ,R046,14,School
-8926304.47203208,2975975.86180202,74,545,PALLOT PARK,3885 NE 6TH AVE,42,0,1059,P134,MIAMI,0,0,0,0, ,R069,15,Park
-8932062.27878403,2974833.49101242,75,546,MELROSE PARK,3050 NW 25TH AVE,42,0,1363,P414,MIAMI,0,0,0,0, ,R098,19,Park
-8926643.64398007,2970110.08162873,76,547,FOUR AMBASSADOR,801 BRICKELL BAY DR,28,0,3274,P741,MIAMI,0,0,0,0, ,R262,36,Hotel/Motel
-8931178.92370065,2971393.49748031,77,548,CITRUS GROVE MIDDLE,2153 NW 3RD ST,54,0,2466,P736,MIAMI,0,0,0,0, ,R211,34,School
-8934946.2768858,2972045.59651258,78,549,AIRPORT REGENCY,1000 NW 42ND AVE,28,0,2188,P712,MIAMI,0,0,0,0, ,R188,27,Hotel/Motel
-8925890.55699899,2978546.65045936,79,550,BANYAN BAY APTS,703 NE 63RD ST,3,0,398,P133,MIAMI,0,0,0,0, ,R029,14,Apartment
-8929743.53976926,2971277.00036529,80,551,BARLINGTON HOTEL,1350 NW 2ND ST,28,0,2567,P733,MIAMI,0,0,0,0, ,R214,35,Hotel/Motel
-8926355.23823404,2977360.30524561,81,552,BEST VALUE INN,5255 BISCAYNE BLVD,28,0,735,P134,MIAMI,0,0,0,0, ,R060,15,Hotel/Motel
-8926849.02270663,2980887.0677447,82,553,OAKLAND GROVE PARK,291 NE 84TH ST,42,0,13,P122,MIAMI,0,0,0,0, ,R004,9,Park
-8932136.77429717,2965372.60402161,83,554,MYERS PARK,2900 BAYSHORE DR,42,0,4450,P752,MIAMI,0,0,0,0, ,R324,46,Park
-8929306.96009235,2975911.27544239,84,555,480X,SB I95 TO 12 AVE CP,48,0,1080,P114,MIAMI,0,0,0,0, ,R074,17,Ramp
-8931576.52634729,2974109.9494831,85,556,SIMULATOR,2301 NW 23RD ST,45,0,1499,P414,MIAMI,0,0,0,0, ,R110,19,Police Facility
-8923820.74347122,2966306.27124205,86,557,HOBIE BEACH,4400 RICKENBACKER CSWY,8,0,4243, , ,0,0,0,0, , ,52,Beach
-8928565.57166036,2976220.42058047,87,558,458X,SB I95 TO 195,48,0,941,P114,MIAMI,0,0,0,0, ,R075,16,Ramp
-8928193.78367329,2968665.4744344,88,559,473X,SB I95 TO 25 RD,48,0,3721,P741,MIAMI,0,0,0,0, ,R274,37,Ramp
-8928348.50666819,2973059.99863989,89,560,463X,SB I95 TO 395,48,0,1784,P418,MIAMI,0,0,0,0, ,R138,23,Ramp
-8935286.31864487,2971249.02070538,90,561,KINLOCH PARK MIDDLE,4340 NW 3RD ST,54,0,2613,P714,MIAMI,0,0,0,0, ,R203,32,School
-8931762.3798265,2965698.06656423,91,562,CHART HOUSE,51 CHARTHOUSE DR,52,0,4416,P752,MIAMI,0,0,0,0, ,R318,45,Restaurant
-8932713.28882916,2965654.02022899,92,563,KIRK MUNROE PARK,3120 OAK AVE,42,0,4434,P752,MIAMI,0,0,0,0, ,R323,46,Park
-8926756.65048487,2971455.61884248,93,564,DOWNTOWN MINI STA,258 NE 2ND AVE,39,0,2441,P446,MIAMI,0,0,0,0, ,R170,36,NET Office
-8926383.2164556,2970953.89072603,94,565,INTERCONTINENTAL HOT,100 CHOPIN PLZ,28,0,2257,P446,MIAMI,0,0,0,0, ,R171,36,Hotel/Motel
-8928178.70540092,2974381.47452635,95,566,GARMENT DISTRICT,2500 NW 5TH AVE,11,0,1465,P424,MIAMI,0,0,0,0, ,R118,21,Business
-8925607.04146707,2980902.64894158,96,567,BISCAYNE HEIGHTS PK,821 NE 84TH ST,42,0,7,P131,MIAMI,0,0,0,0, ,R001,9,Park
-8927037.64440854,2980366.33383304,97,568,LITTLE RIVER PARK,8100 NE 2ND AVE,42,0,66,P121,MIAMI,0,0,0,0, ,R003,10,Park
-8928503.22660508,2978624.5774206,98,569,453X,SB I95 TO 62 ST,48,0,396,P112,MIAMI,0,0,0,0, ,R033,13,Ramp
-8924921.1459687,2980277.05156373,99,570,79 ST BRIDGE,1100 NE 79TH ST,9,0,87,P133,MIAMI,0,0,0,0, ,R014,8,Bridge
-8926383.72681537,2973034.48795467,100,571,VENETIAN BRIDGE,510 NE 15TH ST,9,0,1867,P442,MIAMI,0,0,0,0, ,R156,23,Bridge
-8928682.86742443,2973731.38275312,101,572,LINDSEY HOPKINS,750 NW 20TH ST,54,0,1659,P418,MIAMI,0,0,0,0, ,R138,24,School
-8930149.42170091,2978453.26240192,102,573,LIBERTY SQUARE MINI,6304 NW 14TH AVE,39,0,432,P111,MIAMI,0,0,0,0, ,R030,12,NET Office
-8929501.98577721,2968223.11902208,103,574,FOP LODGE,3399 SW 3RD AVE,45,0,3915,P743,MIAMI,0,0,0,0, ,R296,44,Police Facility
-8927337.57887875,2971136.93758855,104,575,CULTURAL CENTER,101 W FLAGLER ST,44,0,2584,P446,MIAMI,0,0,0,0, ,R169,36,Theater/Performing Arts
-8926398.51407298,2970960.06114052,105,576,S E FINANCIAL CENTER,200 S BISCAYNE BLVD,64,0,2748,P446,MIAMI,0,0,0,0, ,R174,36,Office
-8927028.49610263,2969432.61654105,106,577,FINANCIAL MM STA,50 SE 14TH ST,34,0,3607,P741,MIAMI,0,0,0,0, ,R262,37,MetroMover Station
-8929260.00368085,2971902.13234404,107,578,FIRE CREDIT UNION,1111 NW 7TH ST,7,0,2219,P731,MIAMI,0,0,0,0, ,R215,24,Bank
-8929357.10632941,2971899.16829067,108,579,FIRE GARAGE,1151 NW 7TH ST,43,0,2218,P731,MIAMI,0,0,0,0, ,R215,24,Parking Garage/Lot
-8929282.12866451,2971901.12926687,109,580,FIRE GARAGE ANNEX,1121 NW 7TH ST,43,0,2219,P731,MIAMI,0,0,0,0, ,R215,24,Parking Garage/Lot
-8938072.31893207,2970701.01330779,110,581,FIRE STATION 11,5920 W FLAGLER ST,23,0,2939,P713,MIAMI,0,0,0,0, ,R223,30,Fire Station
-8927043.73465591,2980617.65059344,111,582,FIRE STATION 13,8260 NE 2ND AVE,23,0,40,P121,MIAMI,0,0,0,0, ,R003,10,Fire Station
-8930997.17516377,2968702.93034475,112,583,FIRE STATION 14,2111 SW 19TH ST,23,0,3761,P743,MIAMI,0,0,0,0, ,R284,39,Fire Station
-8927236.73006033,2973621.6494306,113,584,FIRE STATION 2,1901 N MIAMI AVE,23,0,1668,P425,MIAMI,0,0,0,0, ,R142,23,Fire Station
-8928042.87294952,2970973.1706415,114,585,FIRST ST BRIDGE,450 SW 1ST ST,9,0,2737,P732,MIAMI,0,0,0,0, ,R247,36,Bridge
-8936951.53662803,2970758.32691884,115,586,FLAGLER PK CEMETERY,5301 W FLAGLER ST,62,0,2654,P711,MIAMI,0,0,0,0, ,R201,31,Cemetery
-8927770.96729791,2971119.34554801,116,587,FLAGLER ST BRIDGE,300 W FLAGLER ST,9,0,2634,P445,MIAMI,0,0,0,0, ,R167,36,Bridge
-8926981.20891779,2969284.70303681,117,588,FOUR SEASONS HOTEL,1435 BRICKELL AVE,28,0,3648,P741,MIAMI,0,0,0,0, ,R262,37,Hotel/Motel
-8929656.08290828,2967302.20129584,118,589,GENESIS HOUSE,3675 S MIAMI AVE,53,0,4262,P757,MIAMI,0,0,0,0, ,R312,44,Retirement Home
-8927903.73698214,2972685.98706594,119,590,GIBSON PK,350 NW 13TH ST,42,0,1933,P432,MIAMI,0,0,0,0, ,R154,23,Park
-8933200.74623328,2965406.07980797,120,591,GOOMBAY,3400 GRAND AVE,66,0,4120,P756,MIAMI,0,0,0,0, ,R327,46,Special Events
-8929651.46223047,2967305.71423529,121,592,THE NURSING CENTER,3671 S MIAMI AVE,41,0,4262,P757,MIAMI,0,0,0,0, ,R312,44,Nursing Home
-8928913.53044174,2978693.90607538,122,593,THENA CROWDER ELEM,757 NW 66TH ST,54,0,371,P112,MIAMI,0,0,0,0, ,R033,12,School
-8927109.09030083,2970855.69908856,123,594,THIRD STREET MM STA,250 S MIAMI AVE,34,0,2768,P445,MIAMI,0,0,0,0, ,R172,36,MetroMover Station
-8930334.38580971,2970070.16975929,124,595,THREE KINGS,1700 SW 8TH ST,66,0,3313,P743,MIAMI,0,0,0,0, ,R256,38,Special Events
-8928181.64001185,2973288.37151047,125,596,TOWN PK,500 NW 17TH ST,42,0,1777,P432,MIAMI,0,0,0,0, ,R145,23,Park
-8927898.8294302,2969783.67954942,126,597,TRIANGLE PK,400 SW 11TH ST,42,0,3479,P742,MIAMI,0,0,0,0, ,R269,37,Park
-8929046.76424607,2973488.35689263,127,598,UM AIDS RESEARC BLDG,1800 NW 10TH AVE,14,0,1707,P418,MIAMI,0,0,0,0, ,R138,24,Clinic/Health Facility
-8929058.24812312,2973203.15893084,128,599,UM BATCHELOR BLDG,1580 NW 10TH AVE,27,0,1707,P418,MIAMI,0,0,0,0, ,R138,24,Hospital
-8929041.33339606,2973215.35482012,129,600,UM CALDER LIBRARY,1601 NW 10TH AVE,31,0,1799,P418,MIAMI,0,0,0,0, ,R138,24,Library
-8929489.2438923,2973156.7447483,130,601,UM DEBBIE SCHOOL,1601 NW 12TH AVE,54,0,1707,P418,MIAMI,0,0,0,0, ,R138,24,School
-8928958.23040741,2972939.18792055,131,602,UM DERMATOLOGY BLDG,1444 NW 9TH AVE,14,0,1881,P418,MIAMI,0,0,0,0, ,R138,24,Clinic/Health Facility
-8929060.20598372,2972928.24850875,132,603,UM DIABETES RESEARCH,1450 NW 10TH AVE,14,0,1707,P418,MIAMI,0,0,0,0, ,R138,24,Clinic/Health Facility
-8929058.33611571,2973188.3914339,133,604,UM FOX BLDG,1550 NW 10TH AVE,27,0,1707,P418,MIAMI,0,0,0,0, ,R138,24,Hospital
-8929774.88962291,2973694.66263828,134,605,MOTOR POOL,1320 NW 20TH ST,65,0,1664,P417,MIAMI,0,0,0,0, ,R137,24,Other
-8926403.79309423,2970659.24617645,135,606,Miami River Marker 2, ,67,0, , , ,0,0,0,0, , , ,Aid to Navigation
-8924611.00123266,2979678.56012916,136,607,ICW Marker 27, ,67,0, , , ,0,0,0,0, , , ,Aid to Navigation
-8924676.27916675,2979011.85426099,137,608,ICW Marker 29, ,67,0, , , ,0,0,0,0, , , ,Aid to Navigation
-8924715.79771298,2978316.73134616,138,609,ICW Marker 31, ,67,0, , , ,0,0,0,0, , , ,Aid to Navigation
-8924764.16282621,2977668.15642134,139,610,ICW Marker 33, ,67,0, , , ,0,0,0,0, , , ,Aid to Navigation
-8924885.00647108,2977116.31214777,140,611,ICW Marker 35, ,67,0, , , ,0,0,0,0, , , ,Aid to Navigation
-8924987.79328847,2976549.5469254,141,612,ICW Marker 37, ,67,0, , , ,0,0,0,0, , , ,Aid to Navigation
-8925065.31715855,2976132.67093898,142,613,ICW Marker 39, ,67,0, , , ,0,0,0,0, , , ,Aid to Navigation
-8925307.59492576,2975087.54340119,143,614,ICW Marker 41, ,67,0, , , ,0,0,0,0, , , ,Aid to Navigation
-8925410.25677617,2974543.28334189,144,615,ICW Marker 43, ,67,0, , , ,0,0,0,0, , , ,Aid to Navigation
-8925526.89547279,2973921.14927475,145,616,ICW Marker 45, ,67,0, , , ,0,0,0,0, , , ,Aid to Navigation
-8925692.48602488,2973464.26862189,146,617,ICW Marker 47, ,67,0, , , ,0,0,0,0, , , ,Aid to Navigation
-8925704.4205294,2973285.23747466,147,618,ICW Marker 49, ,67,0, , , ,0,0,0,0, , , ,Aid to Navigation
-8925890.76294552,2971557.66813687,148,619,ICW Marker 53, ,67,0, , , ,0,0,0,0, , , ,Aid to Navigation
-8925904.98618621,2971321.10596743,149,620,ICW Marker 3A, ,67,0, , , ,0,0,0,0, , , ,Aid to Navigation
-8925939.83542832,2971164.6257941,150,621,ICW Marker 55, ,67,0, , , ,0,0,0,0, , , ,Aid to Navigation
-8925827.5584025,2970870.31624604,151,622,ICW Marker 57, ,67,0, , , ,0,0,0,0, , , ,Aid to Navigation
-8925787.51542731,2970668.27554843,152,623,ICW Marker 59, ,67,0, , , ,0,0,0,0, , , ,Aid to Navigation
-8925898.46506872,2970056.19587133,153,624,ICW Marker 61, ,67,0, , , ,0,0,0,0, , , ,Aid to Navigation
-8926074.53717362,2969578.62830439,154,625,ICW Marker 63, ,67,0, , , ,0,0,0,0, , , ,Aid to Navigation
-8926062.16957137,2969008.30814755,155,626,ICW Marker 65, ,67,0, , , ,0,0,0,0, , , ,Aid to Navigation
-8926037.55727542,2968455.55379046,156,627,ICW Marker 67, ,67,0, , , ,0,0,0,0, , , ,Aid to Navigation
-8925961.09079475,2967164.72811555,157,628,ICW Marker 69, ,67,0, , , ,0,0,0,0, , , ,Aid to Navigation
-8924195.92945251,2981014.43421297,158,629,ICW Marker 23, ,67,0, , , ,0,0,0,0, , , ,Aid to Navigation
-8924354.09807152,2980937.80733183,159,630,ICW Marker 24, ,67,0, , , ,0,0,0,0, , , ,Aid to Navigation
-8924376.20694744,2980859.50041507,160,631,ICW Marker 25, ,67,0, , , ,0,0,0,0, , , ,Aid to Navigation
-8924621.51234783,2980658.11133539,161,632,ICW Marker 26, ,67,0, , , ,0,0,0,0, , , ,Aid to Navigation
-8922560.99308543,2972500.7883617,162,633,Memorial Island, ,26,0, , , ,0,0,0,0, , , ,Historical Monument
-8924374.29474855,2967528.33991285,163,634,Marine Stadium Basin, ,65,0, , , ,0,0,0,0, , , ,Other
-8921423.97295472,2967233.79991199,164,635,Virginia Key Beach, ,8,0, , , ,0,0,0,0, , , ,Beach
-8927281.19234118,2967886.53661912,165,636,Hobie Beach North, ,8,0, , , ,0,0,0,0, , , ,Beach
-8927406.1804909,2967468.68937487,166,637,Hobie Beach South, ,8,0, , , ,0,0,0,0, , , ,Beach
-8930029.60462181,2971405.25861235,167,638,ORANGE BOWL,1501 NW 3RD ST,57,0,2331,P731,MIAMI,0,0,0,0, ,R213,35,Stadium
-8927312.66640464,2971834.38196535,168,639,OVERTOWN MR STA,100 NW 6TH ST,35,0,2291,P444,MIAMI,0,0,0,0, ,R165,36,MetroRail Station
-8938177.69646767,2971599.87887747,169,640,PAN AMERICAN HOSP,5959 NW 7TH ST,27,0,2369,P711,MIAMI,0,0,0,0, ,R199,30,Hospital
-8931631.91626725,2972718.21482147,170,641,PBA HALL,2300 NW 14TH ST,45,0,1996,P735,MIAMI,0,0,0,0, ,R193,25,Police Facility
-8932311.01314395,2965242.64234111,171,642,PEACOCK PARK,2820 MC FARLANE RD,42,0,4444,P752,MIAMI,0,0,0,0, ,R324,46,Park
-8926309.76712836,2973054.970657,172,643,PLAZA VENETIA,555 NE 15TH ST,55,0,1822,P441,MIAMI,0,0,0,0, ,R143,23,Shopping Center
-8929489.6139459,2973165.61707459,173,644,RAPE TREATMENT CTR,1611 NW 12TH AVE,27,0,1707,P418,MIAMI,0,0,0,0, ,R138,24,Hospital
-8928357.76231881,2972271.44158546,174,645,REEVES PARK,600 NW 10TH ST,42,0,2127,P434,MIAMI,0,0,0,0, ,R157,23,Park
-8928744.82297955,2968815.03554242,175,646,RICKENBACKER CSWY,300 SE 26TH RD,21,0,3746,P742,MIAMI,0,0,0,0, ,R267,38,Expressway/Causeway
-8929522.08802385,2973771.38291146,176,647,SANTA CLARA MR STA,2050 NW 12TH AVE,34,0,1632,P417,MIAMI,0,0,0,0, ,R127,20,MetroMover Station
-8927048.23605258,2971248.27221933,177,648,SEYBOLD BUILDING,36 NE 1ST ST,11,0,2574,P446,MIAMI,0,0,0,0, ,R169,36,Business
-8930978.7212064,2968774.83711064,178,649,SHENANDOAH PARK,1800 SW 21ST AVE,42,0,3761,P743,MIAMI,0,0,0,0, ,R284,39,Park
-8931188.2015295,2968785.71421247,179,650,SHENANDOAH POOL,1805 SW 22ND AVE,42,0,3761,P743,MIAMI,0,0,0,0, ,R284,39,Park
-8927447.17388026,2969099.57996958,180,651,SIMPSON PARK,55 SW 17TH RD,42,0,3630,P741,MIAMI,0,0,0,0, ,R275,37,Park
-8927340.2272408,2969807.031816,181,652,SOUTH SIDE PARK,100 SW 11TH ST,42,0,3227,P742,MIAMI,0,0,0,0, ,R261,37,Park
-8926356.74665797,2974733.17786801,182,653,COCONUT GROVE BANK,2701 BAYSHORE DR,7,0,1356,P423,MIAMI,0,0,0,0, ,R121,21,Bank
-8927167.72722085,2969587.95539366,183,654,SOUTHSIDE ELEM,45 SW 13TH ST,54,0,3513,P741,MIAMI,0,0,0,0, ,R262,37,School
-8929095.2113917,2978270.81433079,184,655,TACOLCY PK CENTER,6161 NW 9TH AVE,42,0,495,P114,MIAMI,0,0,0,0, ,R041,12,Park
-8927727.59150906,2974926.23294245,185,656,BUENA VISTA ELEM,3001 NW 2ND AVE,54,0,1314,P422,MIAMI,0,0,0,0, ,R108,21,School
-8926398.71238245,2973033.87432693,186,657,VENETIAN CAUSEWAY,500 NE 15TH ST,21,0,1867,P442,MIAMI,0,0,0,0, ,R156,23,Expressway/Causeway
-8929501.17873884,2973159.82610641,187,658,VETERANS HOSPITAL,1201 NW 16TH ST,27,0,1717,P417,MIAMI,0,0,0,0, ,R137,24,Hospital
-8923001.69768364,2966594.87260348,188,659,VIRGINIA BEACH,4299 RICKENBACKER CSWY,8,0,4243, , ,0,0,0,0, , ,52,Beach
-8936778.2543591,2970898.88074349,189,660,FLAGLER ELEM,5222 NW 1ST ST,54,0,2820,P711,MIAMI,0,0,0,0, ,R201,31,School
-8926624.7713358,2975999.604286,190,661,WPLG-CHANNEL 10,3900 BISCAYNE BLVD,15,0,725,P134,MIAMI,0,0,0,0, ,R069,15,Communications Media
-8933537.00403557,2965730.46854259,191,662,VIRRICK POOL,3255 PLAZA ST,42,0,4102,P751,MIAMI,0,0,0,0, ,R321,46,Park
-8928582.83426243,2967942.23613549,192,663,WAINWRIGHT PARK,2845 BRICKELL AVE,42,0,4223,P757,MIAMI,0,0,0,0, ,R312,44,Park
-8929489.6139459,2973165.61707459,193,664,WARD D,1611 NW 12TH AVE,27,0,1707,P418,MIAMI,0,0,0,0, ,R138,24,Hospital
-8938232.10903987,2970446.63784852,194,665,WEST END PARK,250 SW 60TH AVE,42,0,3068,P713,MIAMI,0,0,0,0, ,R223,30,Park
-8928172.1336711,2973323.42576912,195,666,WILLIAMS PARK,1717 NW 5TH AVE,42,0,1654,P431,MIAMI,0,0,0,0, ,R140,23,Park
-8927655.52929392,2973446.14830149,196,667,WHEATLEY ELEM,1801 NW 1ST PL,54,0,1646,P431,MIAMI,0,0,0,0, ,R141,23,School
-8926610.12679117,2972561.44258823,197,668,BICENTENNIAL PK STA,1191 BISCAYNE BLVD,34,0,1968,P443,MIAMI,0,0,0,0, ,R161,23,MetroMover Station
-8933200.74623328,2965406.07980797,198,669,BILLY ROLLE MINI PK,3400 GRAND AVE,42,0,4120,P756,MIAMI,0,0,0,0, ,R327,46,Park
-8927208.07104706,2973656.95417695,199,670,BISCAYNE PK,50 NE 19TH ST,42,0,1668,P425,MIAMI,0,0,0,0, ,R142,23,Park
-8932472.98184977,2966126.63274203,200,671,BLANCHE PK,3098 VIRGINIA ST,42,0,4392,P755,MIAMI,0,0,0,0, ,R316,46,Park
-8926723.58109149,2970646.96098147,201,672,BRICKELL AV BRIDGE,450 SE 2ND AVE,9,0,2900,P445,MIAMI,0,0,0,0, ,R173,36,Bridge
-8927291.1566241,2969690.33874166,202,673,BRICKELL MM STA,1200 SW 1ST AVE,34,0,3226,P741,MIAMI,0,0,0,0, ,R262,37,MetroMover Station
-8926716.55754022,2970424.54199817,203,674,BRICKELL PK,501 BRICKELL AVE,42,0,2978,P741,MIAMI,0,0,0,0, ,R249,36,Park
-8927284.46237788,2969929.08764704,204,675,BRICKELL MR STA,1001 SW 1ST AVE,35,0,3394,P741,MIAMI,0,0,0,0, ,R262,37,MetroRail Station
-8928570.04599105,2971739.22846442,205,676,BRIDGE 7 AV,550 NW 7TH AVE,9,0,2261,P433,MIAMI,0,0,0,0, ,R148,35,Bridge
-8927826.78404913,2977273.58655399,206,677,BUENA VISTA PK,5250 NW 2ND AVE,42,0,772,P125,MIAMI,0,0,0,0, ,R057,16,Park
-8932384.98584058,2965290.74582349,207,678,C GROVE LIBRARY,2875 MC FARLANE RD,31,0,4446,P756,MIAMI,0,0,0,0, ,R330,46,Library
-8929646.84154982,2967309.22728561,208,679,CARROLL MANOR,3667 S MIAMI AVE,53,0,4262,P757,MIAMI,0,0,0,0, ,R312,44,Retirement Home
-8929501.67671781,2972803.62893028,209,680,CEDARS HOSPITAL,1400 NW 12TH AVE,27,0,1805,P417,MIAMI,0,0,0,0, ,R137,24,Hospital
-8929813.45590841,2976909.6763373,210,681,CHARLES HADLEY PK,1300 NW 50TH ST,42,0,854,P115,MIAMI,0,0,0,0, ,R063,17,Park
-8929618.27328158,2976700.05609906,211,682,CHARLES HADLEY POOL,4800 NW 12TH AVE,54,0,854,P115,MIAMI,0,0,0,0, ,R063,17,School
-8931725.01026564,2965538.49177317,212,683,CITY HALL,3500 PAN AMERICAN DR,13,0,4416,P752,MIAMI,0,0,0,0, ,R318,45,City Hall
-8926913.67184016,2970783.15686909,213,684,CLARION HOTEL,100 SE 4TH ST,28,0,2852,P445,MIAMI,0,0,0,0, ,R173,36,Hotel/Motel
-8932042.7320361,2966874.69730917,214,685,COCONUT GROVE STA,2780 SW 27TH AVE,35,0,4326,P755,MIAMI,0,0,0,0, ,R317,42,MetroRail Station
-8932496.96784259,2965454.65366243,215,686,COCOWALK,3015 GRAND AVE,32,0,4432,P752,MIAMI,0,0,0,0, ,R323,46,Mall
-8926938.98432427,2971730.1290894,216,687,COLLEGE NORTH MM STA,100 NE 5TH ST,34,0,2328,P446,MIAMI,0,0,0,0, ,R170,36,MetroMover Station
-8933028.72535089,2969285.49803276,217,688,CORAL GATE PK,1415 SW 32ND AVE,42,0,3661,P717,MIAMI,0,0,0,0, ,R252,40,Park
-8927350.77613609,2971253.95227883,218,689,COUNTY ADMIN BLDG,111 NW 1ST ST,64,0,2513,P446,MIAMI,0,0,0,0, ,R169,36,Office
-8926589.52788878,2973304.33638147,219,690,W GERMANY CONSULATE,1717 BISCAYNE BLVD,16,0,1742,P441,MIAMI,0,0,0,0, ,R143,23,Consulate/Embassy
-8926726.08013651,2971034.25821902,220,691,FRANCE CONSULATE,200 SE 1ST ST,16,0,2703,P446,MIAMI,0,0,0,0, ,R174,36,Consulate/Embassy
-8926388.47751117,2977096.04808308,221,692,BAY SHORE LUTHERAN,5051 BISCAYNE BLVD,12,0,799,P134,MIAMI,0,0,0,0, ,R060,15,Church
-8932036.87757135,2974026.95934564,222,693,FREEWAY TOWING,2246 NW 25TH AVE,11,0,1579,P414,MIAMI,0,0,0,0, ,R109,19,Business
-8934209.43776423,2966054.97248925,223,694,SOUTHLAND TOWING,3870 SHIPPING AVE,11,0,4096,P745,MIAMI,0,0,0,0, ,R307,47,Business
-8929059.4248775,2973246.50395951,224,695,JMH ACC EAST,1666 NW 10TH AVE,27,0,1707,P418,MIAMI,0,0,0,0, ,R138,24,Hospital
-8929258.35539489,2972918.87319125,225,696,JMH MCDONALD HOUSE,1145 NW 14TH TER,27,0,1707,P418,MIAMI,0,0,0,0, ,R138,24,Hospital
-8928951.8936246,2973257.31931869,226,697,JMH MENTAL HEALTH,1695 NW 9TH AVE,27,0,1797,P418,MIAMI,0,0,0,0, ,R138,24,Hospital
-8929046.76424607,2973488.35689263,227,698,JMH RYDER TRAUMA CTR,1800 NW 10TH AVE,37,0,1707,P418,MIAMI,0,0,0,0, ,R138,24,Movie Theater
-8928182.59672849,2975024.28218248,228,699,JOSE DE DIEGO MIDDLE,3100 NW 5TH AVE,54,0,1291,P413,MIAMI,0,0,0,0, ,R107,21,School
-8930454.53295924,2974599.54357636,229,700,JUAN PABLO DUARTE PK,2800 NW 17TH AVE,42,0,1401,P412,MIAMI,0,0,0,0, ,R101,20,Park
-8927749.29777322,2971360.3942673,230,701,JUVENILE CENTER,275 NW 2ND ST,29,0,2454,P445,MIAMI,0,0,0,0, ,R168,36,Jail/Detention Center
-8926867.76241618,2969772.03994752,231,702,JW MARRIOTT,1109 BRICKELL AVE,28,0,3249,P741,MIAMI,0,0,0,0, ,R262,37,Hotel/Motel
-8931075.62043338,2966345.48864641,232,703,KENNEDY PARK,2200 S BAYSHORE DR,42,0,4374,P753,MIAMI,0,0,0,0, ,R319,45,Park
-8929570.99498239,2967366.89228268,233,704,LA SALLE SENIOR HIGH,3601 S MIAMI AVE,54,0,4262,P757,MIAMI,0,0,0,0, ,R312,44,School
-8925854.26279928,2978705.75436913,234,705,LEGION PK,6447 NE 7TH AVE,42,0,182,P133,MIAMI,0,0,0,0, ,R029,14,Park
-8927292.44231391,2977988.93626642,235,706,LEMON CITY PK,50 NE 59TH ST,42,0,571,P124,MIAMI,0,0,0,0, ,R044,13,Park
-8929615.630389,2976587.28420159,236,707,LENORA SMITH ELEM,4700 NW 12TH AVE,54,0,854,P115,MIAMI,0,0,0,0, ,R063,17,School
-8927152.50403476,2977993.19326896,237,708,LOUVERTURE ELEM,120 NE 59TH ST,54,0,569,P124,MIAMI,0,0,0,0, ,R044,13,School
-8936572.8215787,2971652.28941279,238,709,MACEO PK,5115 NW 7TH ST,42,0,2398,P711,MIAMI,0,0,0,0, ,R201,28,Park
-8927337.57887875,2971136.93758855,239,710,MAIN PUBLIC LIBRARY,101 W FLAGLER ST,31,0,2584,P446,MIAMI,0,0,0,0, ,R169,36,Library
-8929076.94779871,2973023.72480797,240,711,UM GAUTIER BLDG,1011 NW 15TH ST,27,0,1707,P418,MIAMI,0,0,0,0, ,R138,24,Hospital
-8929058.23653148,2973214.7160791,241,712,UM GLASER BLDG,1600 NW 10TH AVE,27,0,1707,P418,MIAMI,0,0,0,0, ,R138,24,Hospital
-8929421.4145856,2972808.05427469,242,713,UM HOPE LODGE,1121 NW 14TH ST,27,0,1889,P418,MIAMI,0,0,0,0, ,R138,24,Hospital
-8929485.65604496,2972959.16589238,243,714,UM HOSPITAL&CLINICS,1475 NW 12TH AVE,27,0,1889,P418,MIAMI,0,0,0,0, ,R138,24,Hospital
-8929217.70852872,2972919.07480477,244,715,UM LOIS POPE BLDG,1095 NW 14TH TER,27,0,1707,P418,MIAMI,0,0,0,0, ,R138,24,Hospital
-8929489.2438923,2973156.7447483,245,716,UM MAILMAN CTR,1601 NW 12TH AVE,27,0,1707,P418,MIAMI,0,0,0,0, ,R138,24,Hospital
-8934299.75903903,2975401.99624163,246,717,MIAMI METER COMPANY,3799 NW 36 ST,11,0, , , ,0,0,0,0, , , ,Business
-8929058.92159727,2973233.04258869,247,718,UM MCKNIGHT BLDG,1638 NW 10TH AVE,27,0,1707,P418,MIAMI,0,0,0,0, ,R138,24,Hospital
-8929416.09077205,2972808.23515439,248,719,UM MRI BLDG,1115 NW 14TH ST,14,0,1889,P418,MIAMI,0,0,0,0, ,R138,24,Clinic/Health Facility
-8929058.33611571,2973188.3914339,249,720,UM PAPANICOLAOU BLDG,1550 NW 10TH AVE,27,0,1707,P418,MIAMI,0,0,0,0, ,R138,24,Hospital
-8929041.56823473,2973163.67692396,250,721,UM RADIATION CONTROL,1501 NW 10TH AVE,14,0,1799,P418,MIAMI,0,0,0,0, ,R138,24,Clinic/Health Facility
-8929058.23653148,2973214.7160791,251,722,UM ROSENSTIEL BLDG,1600 NW 10TH AVE,27,0,1707,P418,MIAMI,0,0,0,0, ,R138,24,Hospital
-8928804.20329832,2973368.657784,252,723,UM SICKLE CELL BLDG,794 NW 18TH ST,14,0,1751,P418,MIAMI,0,0,0,0, ,R138,24,Clinic/Health Facility
-8929309.95362628,2972924.42133154,253,724,UM TRAINING LAB BLDG,1430 NW 11TH AVE,14,0,1889,P418,MIAMI,0,0,0,0, ,R138,24,Clinic/Health Facility
-8925074.91422122,2973104.34479042,254,725,VENETIAN CW TOLL PZ,1000 N VENETIAN WAY,55,0,1840,P441,MIAMI,0,0,0,0, ,R175,22,Shopping Center
-8929004.47587124,2971442.47758365,255,726,VICTORIA NURSING,955 NW 3RD ST,41,0,2421,P731,MIAMI,0,0,0,0, ,R215,35,Nursing Home
-8933530.94644562,2965848.3464583,256,727,VIRRICK PK,3580 DAY AVE,42,0,4102,P751,MIAMI,0,0,0,0, ,R321,46,Park
-8929042.64205178,2967770.91393422,257,728,VIZCAYA MUSEUM,3251 S MIAMI AVE,38,0,4223,P757,MIAMI,0,0,0,0, ,R312,44,Museum
-8929175.44755311,2968163.7185669,258,729,VIZCAYA MR STA,3201 SW 1ST AVE,34,0,3934,P743,MIAMI,0,0,0,0, ,R296,44,MetroMover Station
-8924181.97899061,2966697.0432196,259,730,WASTEWATER PLANT,3989 RICKENBACKER CSWY,65,0,4243, , ,0,0,0,0, , ,52,Other
-8929458.86323803,2976342.55366443,260,731,WEST BUENA VISTA PK,4450 NW 11TH CT,42,0,974,P114,MIAMI,0,0,0,0, ,R074,17,Park
-8938228.91256067,2970392.37894964,261,732,WEST END POOL,300 SW 60TH AVE,42,0,3068,P713,MIAMI,0,0,0,0, ,R223,30,Park
-8928585.50577306,2972831.93594762,262,733,WOMENS DETENTION CTR,1401 NW 7TH AVE,29,0,1788,P432,MIAMI,0,0,0,0, ,R152,23,Jail/Detention Center
-8933224.93802717,2969981.56613381,263,734,WOODLAWN PK CEMETERY,3260 SW 8TH ST,62,0,3382,P717,MIAMI,0,0,0,0, ,R251,40,Cemetery
-8919520.63199141,2969345.16361663,264,735,Gov. Cut Marker 11, ,67,0, , , ,0,0,0,0, , , ,Aid to Navigation
-8920222.2827478,2969641.40325705,265,736,Gov. Cut Marker 13, ,67,0, , , ,0,0,0,0, , , ,Aid to Navigation
-8920280.60312121,2969889.37085806,266,737,Gov. Cut Marker 12, ,67,0, , , ,0,0,0,0, , , ,Aid to Navigation
-8920846.19779971,2969926.97096875,267,738,Gov. Cut Marker 15, ,67,0, , , ,0,0,0,0, , , ,Aid to Navigation
-8920964.19609854,2970170.17078393,268,739,Gov. Cut Marker 14, ,67,0, , , ,0,0,0,0, , , ,Aid to Navigation
-8921349.42384432,2970356.20627165,269,740,Gov. Cut Marker 16, ,67,0, , , ,0,0,0,0, , , ,Aid to Navigation
-8921770.39787566,2969932.63762876,270,741,FC Marker  3, ,67,0, , , ,0,0,0,0, , , ,Aid to Navigation
-8921399.48953029,2968890.18349743,271,742,Norris Cut W, ,67,0, , , ,0,0,0,0, , , ,Aid to Navigation
-8921334.5523803,2968838.68346175,272,743,Norris Cut C, ,67,0, , , ,0,0,0,0, , , ,Aid to Navigation
-8921244.87804359,2968756.2840636,273,744,Norris Cut E, ,67,0, , , ,0,0,0,0, , , ,Aid to Navigation
-8922350.27851819,2969944.48826268,274,745,FC Marker  5, ,67,0, , , ,0,0,0,0, , , ,Aid to Navigation
-8922874.6239177,2969967.70038308,275,746,FC Marker  7, ,67,0, , , ,0,0,0,0, , , ,Aid to Navigation
-8923493.09788857,2969994.58736216,276,747,FC Marker  9, ,67,0, , , ,0,0,0,0, , , ,Aid to Navigation
-8924528.05956551,2970526.31985268,277,748,FC Marker 11, ,67,0, , , ,0,0,0,0, , , ,Aid to Navigation
-8924821.10609918,2970671.73979193,278,749,FC Marker 13, ,67,0, , , ,0,0,0,0, , , ,Aid to Navigation
-8925232.33792959,2970861.52353084,279,750,FC Marker 15, ,67,0, , , ,0,0,0,0, , , ,Aid to Navigation
-8925668.43314038,2971029.78067606,280,751,FC Marker 16, ,67,0, , , ,0,0,0,0, , , ,Aid to Navigation
-8925633.36697267,2970931.54025027,281,752,FC Marker 17, ,67,0, , , ,0,0,0,0, , , ,Aid to Navigation
-8925783.49552331,2970998.91113405,282,753,FC Marker 18, ,67,0, , , ,0,0,0,0, , , ,Aid to Navigation
-8921665.32338782,2970283.2061627,283,754,Gov. Cut Marker 17, ,67,0, , , ,0,0,0,0, , , ,Aid to Navigation
-8925530.98025021,2972344.32939076,284,755,Turn Basin 22, ,67,0, , , ,0,0,0,0, , , ,Aid to Navigation
-8925620.06782768,2972439.250223,285,756,Turn Basin  A, ,67,0, , , ,0,0,0,0, , , ,Aid to Navigation
-8925802.81630439,2972647.56604464,286,757,Turn Basin  B, ,67,0, , , ,0,0,0,0, , , ,Aid to Navigation
-8926066.08826954,2972562.88067258,287,758,Turn Basin  C, ,67,0, , , ,0,0,0,0, , , ,Aid to Navigation
-8926154.21643962,2972320.77383947,288,759,Turn Basin  D, ,67,0, , , ,0,0,0,0, , , ,Aid to Navigation
-8925976.29048147,2972097.42338767,289,760,Turn Basin  E, ,67,0, , , ,0,0,0,0, , , ,Aid to Navigation
-8925744.43616917,2972060.6080246,290,761,ICW Marker 50, ,67,0, , , ,0,0,0,0, , , ,Aid to Navigation
-8926079.63526694,2970744.60687727,291,762,Miami River Marker 1, ,67,0, , , ,0,0,0,0, , , ,Aid to Navigation
-8923233.45947006,2966887.05598896,292,763,DADE MARINE INSTITUT,1820 ARTHUR LAMB JR RD,54,0, , , ,0,0,0,0, , , ,School
-8927752.90636195,2971526.31130104,293,764,DOWNTOWN CHARTER SCH,305 NW 3RD AVE,54,0, , , ,0,0,0,0, , , ,School
-8927054.54795288,2975221.51995018,294,765,MIDTOWN MIAMI,3250 NE 1ST AVE,65,0, , , ,0,0,0,0, , , ,Other
-8929551.25735766,2971538.38573712,295,68,THEODORE GIBSON POOL,1245 NW 4TH AVE,42,0,2370,P731,MIAMI,0,0,0,0, ,R213,35,Park
-8927958.64300285,2972836.13759546,296,409,THEODORE GIBSON PARK,380 NW 14TH ST,42,0, ,P435,MIAMI,0,0,0,0, ,R154,23,Park
-8928905.09693568,2975842.02566412,297,32,139X,EB 112 TO NB I95,48,0,1017,P413,MIAMI,0,0,0,0, ,R085,17,Ramp
-8930454.53295924,2974599.54357636,298,33,COMSTOCK PARK,2800 NW 17TH AVE,42,0,1401,P412,MIAMI,0,0,0,0, ,R101,20,Park
-8927243.40608475,2978381.00715862,299,34,FIRE STATION 9,69 NE 62ND ST,23,0,445,P124,MIAMI,0,0,0,0, ,R036,13,Fire Station
-8927276.41658378,2971139.11327965,300,35,DADE CO COURTHOUSE,73 FLAGLER ST,18,0,2582,P446,MIAMI,0,0,0,0, ,R169,36,Court House
-8928673.54472233,2975579.46340508,301,36,FIRE STATION 6,701 NW 36TH ST,23,0,1017,P413,MIAMI,0,0,0,0, ,R085,17,Fire Station
-8928951.8936246,2973257.31931869,302,37,CRISIS INTERVENTION,1695 NW 9TH AVE,49,0,1797,P418,MIAMI,0,0,0,0, ,R138,24,Rehabilitation Center
-8928588.24250958,2972397.62082369,303,38,CULMER MR STA,701 NW 11TH ST,35,0,2036,P433,MIAMI,0,0,0,0, ,R149,24,MetroRail Station
-8931779.48259458,2973465.9232994,304,39,CURTIS PARK,1901 NW 24TH AVE,42,0,1681,P416,MIAMI,0,0,0,0, ,R134,25,Park
-8931653.94087001,2970520.2100407,305,40,FIRE STATION 7,314 BEACOM BLVD,23,0,3011,P737,MIAMI,0,0,0,0, ,R237,34,Fire Station
-8927515.07709802,2969797.32312419,306,41,FIRE STATION 4,1105 SW 2ND AVE,23,0,3227,P742,MIAMI,0,0,0,0, ,R261,37,Fire Station
-8931788.43822483,2965600.96224048,307,42,DINNER KEY MARINA,3400 PAN AMERICAN DR,33,0,4416,P752,MIAMI,0,0,0,0, ,R318,45,Marina
-8929091.00049307,2975842.02637988,308,43,140X,EB 112 TO NB I95 CP,48,0,1017,P413,MIAMI,0,0,0,0, ,R085,17,Ramp
-8928905.09693568,2975842.02566412,309,44,138X,EB 112 TO SB I95,48,0,1017,P413,MIAMI,0,0,0,0, ,R085,17,Ramp
-8929802.33200752,2975842.02923543,310,45,135X,EB 112 TO 12 AV,48,0,1094,P412,MIAMI,0,0,0,0, ,R083,17,Ramp
-8928750.36283569,2975876.64911361,311,46,137X,EB 112 TO 195,48,0,1017,P413,MIAMI,0,0,0,0, ,R085,17,Ramp
-8930141.85641195,2975807.40642647,312,47,133X,EB 112 TOLL PZ,48,0,1104,P412,MIAMI,0,0,0,0, ,R082,17,Ramp
-8926090.94102224,2975670.13204076,313,48,144X,EB 195 E FO 36 ST,48,0,1123, ,MIAMI,0,0,0,0, , ,15,Ramp
-8926493.91737269,2975739.38105416,314,49,143X,EB 195 TO BISC BL,48,0,1091,P423,MIAMI,0,0,0,0, ,R097,15,Ramp
-8929242.33553111,2971902.93329907,315,50,FIRE STATION 3,1103 NW 7TH ST,23,0,2219,P731,MIAMI,0,0,0,0, ,R215,24,Fire Station
-8938223.05859347,2970203.76589266,316,51,FAIRLAWN ELEM,444 SW 60TH AVE,54,0,3068,P713,MIAMI,0,0,0,0, ,R223,30,School
-8929936.46468125,2970086.76307448,317,52,DOMINO PARK,1448 SW 8TH ST,42,0,3300,P742,MIAMI,0,0,0,0, ,R257,38,Park
-8926859.80317607,2971732.52023405,318,53,FIRE STATION 1,144 NE 5TH ST,23,0,2328,P446,MIAMI,0,0,0,0, ,R170,36,Fire Station
-8927437.37774863,2973292.99201272,319,54,DORSEY PARK,1701 NW 1ST AVE,42,0,1678,P431,MIAMI,0,0,0,0, ,R141,23,Park
-8933849.6482149,2966889.9267255,320,55,DOUGLAS PARK,2755 SW 37TH AVE,42,0,4045,P745,MIAMI,0,0,0,0, ,R304,42,Park
-8927850.31594341,2978239.8850894,321,56,EDISON MIDDLE SCHOOL,6101 NW 2ND AVE,54,0,485,P123,MIAMI,0,0,0,0, ,R043,13,School
-8933833.37714549,2966066.26404968,322,57,DOUGLAS RD MR STA,3100 SW 37TH AVE,35,0,4097,P751,MIAMI,0,0,0,0, ,R320,47,MetroRail Station
-8926391.30920406,2978262.63115895,323,58,EATON PARK,6015 NE 4TH CT,42,0,481,P132,MIAMI,0,0,0,0, ,R046,14,Park
-8926587.80847817,2971145.88284881,324,59,FIRST FEDERAL BLDG,1 SE 3RD AVE,7,0,2629,P446,MIAMI,0,0,0,0, ,R174,36,Bank
-8928360.22608595,2978342.09755941,325,60,EDISON CENTER PARK,525 NW 62ND ST,42,0,364,P123,MIAMI,0,0,0,0, ,R034,13,Park
-8928360.22608595,2978342.09755941,326,61,EDISON CENTER POOL,525 NW 62ND ST,42,0,364,P123,MIAMI,0,0,0,0, ,R034,13,Park
-8927319.5781761,2971076.48900658,327,62,FEDERAL BUILDING,51 SW 1ST AVE,18,0,2651,P445,MIAMI,0,0,0,0, ,R172,36,Court House
-8931311.81692131,2972265.75403906,328,63,FERN ISLE PARK,1100 NW 22ND AVE,42,0,1996,P735,MIAMI,0,0,0,0, ,R193,25,Park
-8927143.42107543,2971921.06205842,329,64,TOBACCO ROAD,626 MIAMI AVE,52,0,2240,P444,MIAMI,0,0,0,0, ,R165,36,Restaurant
-8929447.90038127,2968272.73615662,330,65,FIVE POINTS,1200 SW 22ND ST,11,0,3915,P743,MIAMI,0,0,0,0, ,R296,44,Business
-8940154.36376395,2970300.6395055,331,66,FLAGAMI PARK,7121 SW 3RD ST,42,0,3096,P713,MIAMI,0,0,0,0, ,R219,29,Park
-8934311.14307465,2971371.98207378,332,67,FLAGLER DOG TRACK,401 NW 38TH CT,11,0,2358,P714,MIAMI,0,0,0,0, ,R204,32,Business
-8934458.33484099,2965351.34541895,333,69,GRAND AVENUE PARK,236 GRAND AVE,42,0, , , ,0,0,0,0, , ,47,Park
-8934060.11744174,2972870.63896752,334,70,GRAPELAND HEIGHTS PK,1550 NW 37TH AVE,42,0,1711,P712,MIAMI,0,0,0,0, ,R178,26,Park
-8932313.19097267,2966864.01683982,335,71,COCONUT GROVE MR STA,2880 SW 28TH LA,35,0,4310,P745,MIAMI,0,0,0,0, ,R305,42,MetroRail Station
-8929813.45590841,2976909.6763373,336,72,HADLEY PARK,1300 NW 50TH ST,42,0,854,P115,MIAMI,0,0,0,0, ,R063,17,Park
-8929036.57859202,2971320.50161011,337,73,HENDERSON PARK,971 NW 2ND ST,42,0,2477,P732,MIAMI,0,0,0,0, ,R216,35,Park
-8932221.15368209,2965481.61353067,338,74,MAYFAIR,3390 MARY ST,32,0,4437,P752,MIAMI,0,0,0,0, ,R324,46,Mall
-8926959.00248827,2972004.73460782,339,75,CAMILLUS HOUSE,726 NE 1ST AVE,65,0,2190,P444,MIAMI,0,0,0,0, ,R165,23,Other
-8935017.35615057,2975345.06122715,340,76,MIAMI-DADE WATER DEP,3575 LE JEUNE RD,65,0, , , ,0,0,0,0, , , ,Other
-8929489.6139459,2973165.61707459,341,77,JACKSON MEMORIAL HOS,1611 NW 12TH AVE,27,0,1707,P418,MIAMI,0,0,0,0, ,R138,24,Hospital
-8934118.97799208,2975308.56453331,342,78,MIAMI JAI ALAI,3500 NW 37TH AVE,56,0,1241, , ,0,0,0,0, , ,18,Sport Complex
-8926422.289996,2975647.39832723,343,79,JULIA TUTTLE CSWY,500 NE 36TH ST,21,0,1148,P423,MIAMI,0,0,0,0, ,R097,15,Expressway/Causeway
-8929768.93452217,2972542.93549149,344,80,METRO JUSTICE BLDG,1351 NW 12TH ST,18,0,1965,P417,MIAMI,0,0,0,0, ,R137,24,Court House
-8935814.3634584,2971428.76540375,345,81,KINLOCH PARK,455 NW 47TH AVE,42,0,2463,P714,MIAMI,0,0,0,0, ,R203,31,Park
-8927964.65762139,2971456.52902583,346,82,LUMMUS PARK,404 NW 3RD ST,42,0,2459,P445,MIAMI,0,0,0,0, ,R167,36,Park
-8927053.26258367,2969932.7272313,347,83,ALLEN MORRIS PARK,15 SE 10TH ST,42,0,3391,P741,MIAMI,0,0,0,0, ,R262,37,Park
-8927544.77325119,2975739.38515288,348,84,142X,EB 195 TO MIAMI AV,48,0,1114,P422,FHP MIAMI,0,0,0,0, ,R151,16,Ramp
-8927142.91774283,2972579.0663287,349,85,171X,EB 395 TO BISC BL,48,0,2022,P443,MIAMI,0,0,0,0, ,R160,23,Ramp
-8926431.58605058,2972648.29641955,350,86,481X,EB 395 FROM NE 13 ST,48,0,1968,P443,MIAMI,0,0,0,0, ,R161,23,Ramp
-8926431.58605058,2972648.29641955,351,87,482X,EB 395 FROM BISC BL,48,0,1968,P443,MIAMI,0,0,0,0, ,R161,23,Ramp
-8934707.34254982,2965839.54186095,352,88,MERRY CHRISTMAS PARK,4301 LE JEUNE RD,42,0, , , ,0,0,0,0, , ,47,Park
-8926488.82799853,2971640.5477124,353,89,BAYSIDE MARINA,401 BISCAYNE BLVD,33,0,2257,P446,MIAMI,0,0,0,0, ,R171,36,Marina
-8927593.39791567,2971596.02994869,354,90,MIAMI POLICE DEPT,400 NW 2ND AVE,46,0,2341,P445,MIAMI,0,0,0,0, ,R168,36,Police Station
-8928900.91910835,2975575.81046305,355,91,MOORE PARK,765 NW 36TH ST,42,0,1017,P413,MIAMI,0,0,0,0, ,R085,17,Park
-8925645.50170132,2977658.39988784,356,92,MORNINGSIDE PARK,750 NE 55TH TER,42,0,667,P134,MIAMI,0,0,0,0, ,R060,14,Park
-8925551.03897146,2977663.74281356,357,93,MORNINGSIDE POOL,850 NE 55TH TER,42,0,667,P134,MIAMI,0,0,0,0, ,R060,14,Park
-8929474.81172468,2972249.24559497,358,94,12 AV BRIDGE,1000 NW 12TH AVE,9,0,2089,P433,MIAMI,0,0,0,0, ,R148,24,Bridge
-8930384.96635046,2972440.88718736,359,95,17 AV BRIDGE,1200 NW 17TH AVE,9,0,2033,P735,MIAMI,0,0,0,0, ,R193,25,Bridge
-8927542.02146416,2970587.21257972,360,96,2 AV BRIDGE,445 SW 2ND AVE,9,0,2849,P445,MIAMI,0,0,0,0, ,R173,36,Bridge
-8926555.15077841,2972613.68043006,361,97,172X,EB 395 TO MACARTHUR CW,48,0,1968,P443,FHP MIAMI,0,0,0,0, ,R161,23,Ramp
-8927142.91774283,2972579.0663287,362,98,170X,EB 395 TO NE 2 AV,48,0,2022,P443,MIAMI,0,0,0,0, ,R160,23,Ramp
-8931320.26956153,2972904.15776997,363,99,22 AV BRIDGE,1500 NW 22ND AVE,9,0,1740,P735,MIAMI,0,0,0,0, ,R185,25,Bridge
-8932255.21025213,2973294.43112299,364,100,27 AV BRIDGE,1800 NW 27TH AVE,9,0,1694,P715,MIAMI,0,0,0,0, ,R181,26,Bridge
-8928702.36051502,2971553.91053575,365,101,5 ST BRIDGE,800 NW 4TH ST,9,0,2415,P731,MIAMI,0,0,0,0, ,R215,35,Bridge
-8924837.59183701,2980263.48721827,366,102,79 ST CAUSEWAY,1200 NE 79TH ST,21,0,86,P133,MIAMI,0,0,0,0, ,R014,8,Expressway/Causeway
-8927851.30065968,2970639.1850354,367,103,JOSE MARTI PARK,351 SW 4TH ST,41,0,2732,P732,MIAMI,0,0,0,0, ,R247,36,Nursing Home
-8926488.82799853,2971640.5477124,368,104,BAYSIDE,401 BISCAYNE BLVD,60,0,2257,P446,MIAMI,0,0,0,0, ,R171,36,Tourist Attraction
-8924188.788918,2966703.89777781,369,105,MAST ACADEMY,3979 RICKENBACKER CSWY,54,0,4243, , ,0,0,0,0, , ,52,School
-8928913.53044174,2978693.90607538,370,106,CROWDER ELEM,757 NW 66TH ST,54,0,371,P112,MIAMI,0,0,0,0, ,R033,12,School
-8927352.2352524,2971980.03260718,371,107,MIAMI ARENA,721 NW 1ST AVE,44,0,2198,P444,MIAMI,0,0,0,0, ,R165,23,Theater/Performing Arts
-8932657.18094639,2965549.10160701,372,108,COCONUT GROVE ELEM,3351 MATILDA ST,54,0,4432,P752,MIAMI,0,0,0,0, ,R323,46,School
-8928360.22608595,2978342.09755941,373,109,ATHALIE RANGE PARK,525 NW 62ND ST,42,0,364,P123,MIAMI,0,0,0,0, ,R034,13,Park
-8934996.50702988,2972476.48213836,374,110,154X,EB 836 AT 42 AV,48,0,2039,P712,MIAMI,0,0,0,0, ,R187,27,Ramp
-8929461.70319531,2972441.84690431,375,111,165X,EB 836 FROM NB 12 AV,48,0,2041,P433,MIAMI,0,0,0,0, ,R148,24,Ramp
-8934935.28148538,2972441.86598196,376,112,155X,EB 836 FROM NB 42 AV,48,0,2023,P712,MIAMI,0,0,0,0, ,R188,27,Ramp
-8929492.87259027,2972441.84703013,377,113,065X,EB 836 FROM SB 12 AV,48,0,2041,P433,MIAMI,0,0,0,0, ,R148,24,Ramp
-8932244.69049515,2972441.85776259,378,114,058X,EB 836 FROM SB 27 AV,48,0,2069,P715,MIAMI,0,0,0,0, ,R192,26,Ramp
-8934966.45110747,2972373.87049441,379,115,055X,EB 836 FROM SB 42 AV,48,0,2039,P712,MIAMI,0,0,0,0, ,R187,27,Ramp
-8932213.52141335,2972304.6304656,380,116,161X,EB 836 FROM 27 AV,48,0,2068,P735,FHP MIAMI,0,0,0,0, ,R194,25,Ramp
-8930860.75349478,2973677.99523371,381,117,ALLAPATTAH MINI STA,1897 NW 20TH ST,39,0,1644,P415,MIAMI,0,0,0,0, ,R125,19,NET Office
-8940008.34905488,2970665.1212398,382,118,ARBOLEYA CAMPGROUND,7025 FLAGLER ST,42,0,2856,P713,MIAMI,0,0,0,0, ,R218,29,Park
-8932419.1588221,2965682.57173082,383,119,FIRE STATION 8,2975 OAK AVE,23,0,4419,P752,MIAMI,0,0,0,0, ,R324,46,Fire Station
-8933530.94644562,2965848.3464583,384,120,ELIZABETH VIRRICK PK,3580 DAY AVE,42,0,4102,P751,MIAMI,0,0,0,0, ,R321,46,Park
-8927534.36790129,2975346.57510835,385,121,ROBERTO CLEMENTE PK,101 NW 34TH ST,42,0,1208,P422,MIAMI,0,0,0,0, ,R096,21,Park
-8929618.27328158,2976700.05609906,386,122,HADLEY POOL,4800 NW 12TH AVE,42,0,854,P115,MIAMI,0,0,0,0, ,R063,17,Park
-8925417.16877346,2979995.15236441,387,123,BELLE MEADE ISLAND,800 BELLE MEADE ISLE DR,51,0,141,P133,MIAMI,0,0,0,0, ,R013,8,Residential Community
-8931555.36465609,2965965.2550842,388,124,VIRRICK GYM,2600 BAYSHORE DR,42,0,4416,P752,MIAMI,0,0,0,0, ,R318,45,Park
-8929813.45590841,2976909.6763373,389,125,HADLEY PARK GYM,1300 NW 50TH ST,42,0,854,P115,MIAMI,0,0,0,0, ,R063,17,Park
-8934072.68162645,2973268.43276229,390,126,MEL REESE GOLF COURS,1802 NW 37TH AVE,25,0,1711,P712,MIAMI,0,0,0,0, ,R178,27,Golf Course
-8927294.76014637,2975627.43961637,391,127,LA SALLE HIGH SCHOOL,3601 MIAMI AVE,54,0,1116,P422,MIAMI,0,0,0,0, ,R096,16,School
-8929517.5747706,2973704.03542625,392,128,FIRE STATION 5,1200 NW 20TH ST,23,0,1661,P417,MIAMI,0,0,0,0, ,R137,24,Fire Station
-8931253.56342549,2970931.12339981,393,129,HISPANIC LIBRARY,2190 FLAGLER ST,31,0,2771,P736,MIAMI,0,0,0,0, ,R239,34,Library
-8926416.55689444,2978351.22573332,394,130,LEMON CITY LIBRARY,430 NE 61ST ST,31,0,481,P132,MIAMI,0,0,0,0, ,R046,14,Library
-8927146.05672925,2980202.30991316,395,131,LITTLE RIVER LIBRARY,160 NE 79TH ST,31,0,109,P122,MIAMI,0,0,0,0, ,R010,10,Library
-8930997.17516377,2968702.93034475,396,132,SHENANDOAH LIBRARY,2111 SW 19TH ST,31,0,3761,P743,MIAMI,0,0,0,0, ,R284,39,Library
-8936415.97378333,2970765.55730355,397,133,WEST FLAGLER LIBRARY,5050 FLAGLER ST,31,0,2897,P714,MIAMI,0,0,0,0, ,R226,31,Library
-8931154.57811261,2973782.94416612,398,134,GOODWILL,2121 NW 21ST ST,11,0,1600,P416,MIAMI,0,0,0,0, ,R124,19,Business
-8929720.00157418,2979115.16063135,399,135,NORTHWESTERN SR HIGH,7007 NW 12TH AVE,54,0,279,P111,MIAMI,0,0,0,0, ,R021,12,School
-8931974.00366159,2965456.16668139,400,136,SEMINOLE BOAT DOCK,3461 SW 27TH AVE,48,0,4416,P752,MIAMI,0,0,0,0, ,R318,45,Ramp
-8924920.08856292,2967427.91100921,401,137,RICKENBACKER MARINA,3301 RICKENBACKER CSWY,33,0,4222,P741,MIAMI,0,0,0,0, ,R334,52,Marina
-8924601.8211893,2967113.36656927,402,138,VIRGINIA KEY MARINA,3501 RICKENBACKER CSWY,33,0,4222,P741,MIAMI,0,0,0,0, ,R334,52,Marina
-8924036.79266505,2966550.90413011,403,139,VIRGINIA KEY,4201 RICKENBACKER CSWY,65,0,4243, , ,0,0,0,0, , ,52,Other
-8927470.71068797,2973803.24378767,404,140,MIAMI RESCUE MISSION,2020 NW 1ST AVE,65,0,1609,P424,MIAMI,0,0,0,0, ,R132,21,Other
-8932388.76042282,2965555.16015045,405,141,MAYFAIR HOUSE HOTEL,3000 FLORIDA AVE,28,0,4438,P752,MIAMI,0,0,0,0, ,R324,46,Hotel/Motel
-8935862.57267952,2972236.64627079,406,142,174X,EB 836 TO 45 AV,48,0,2141,P711,MIAMI,0,0,0,0, ,R186,28,Ramp
-8929802.34095296,2972373.85267617,407,143,483X,EB 836 AT MIAMI RIVER,48,0,2089,P433,MIAMI,0,0,0,0, ,R148,24,Ramp
-8931007.93183957,2972098.1694285,408,144,162X,EB 836 TOLL PZ,48,0,2205,P735,MIAMI,0,0,0,0, ,R195,25,Ramp
-8927111.75211064,2971068.38843311,409,145,349X,NB I95 FROM MIAMI AV,48,0,2651,P445,MIAMI,0,0,0,0, ,R172,36,Ramp
-8926594.59866236,2973162.40240585,410,146,CROWN PLAZA HOTEL,1601 BISCAYNE BLVD,28,0,1742,P441,MIAMI,0,0,0,0, ,R143,23,Hotel/Motel
-8928239.91027121,2971685.71596961,411,147,JACK ORR PLAZA,550 NW 5TH ST,55,0,2352,P445,MIAMI,0,0,0,0, ,R167,36,Shopping Center
-8932336.25448118,2966225.43419279,412,148,LINCOLN PARK,2940 JACKSON AVE,42,0,4399,P755,MIAMI,0,0,0,0, ,R317,46,Park
-8928715.20698675,2973469.31550602,413,149,CLAUDE PEPPER TOWERS,750 NW 18TH TER,3,0,1719,P418,MIAMI,0,0,0,0, ,R138,24,Apartment
-8935839.290566,2971972.87097014,414,150,BLUE LAGOON LAKE,900 NW 47TH AVE,65,0,2214,P711,MIAMI,0,0,0,0, ,R186,28,Other
-8934959.00215475,2971782.40814341,415,151,MEXICAN CONSULATE,780 NW 42ND AVE,16,0,2284,P712,MIAMI,0,0,0,0, ,R187,27,Consulate/Embassy
-8927966.50742582,2970976.29211439,416,152,1 ST BRIDGE,400 SW 1ST ST,9,0,2737,P732,MIAMI,0,0,0,0, ,R247,36,Bridge
-8929122.16996338,2975842.02643744,417,153,360X,NB I95 FROM NW 10 AV CP,48,0,1017,P413,MIAMI,0,0,0,0, ,R085,17,Ramp
-8927791.91152264,2972132.77218772,418,154,352X,NB I95 FROM NW 8 ST,48,0,2122,P434,MIAMI,0,0,0,0, ,R159,23,Ramp
-8928317.34922041,2968321.87987262,419,155,341X,NB I95 FROM RICK CW,48,0,3890,P741,MIAMI,0,0,0,0, ,R274,37,Ramp
-8927328.82557432,2970896.56256458,420,156,348X,NB I95 FROM SE 2 AV,48,0,2768,P445,MIAMI,0,0,0,0, ,R172,36,Ramp
-8931565.91898186,2965978.53519348,421,157,GRAN BAHIA HOTEL,2601 BAYSHORE DR,28,0,4404,P752,MIAMI,0,0,0,0, ,R318,45,Hotel/Motel
-8929705.0269662,2973696.62739353,422,158,SOLID WASTE DEPT,1290 NW 20TH ST,65,0,1661,P417,MIAMI,0,0,0,0, ,R137,24,Other
-8931555.36465609,2965965.2550842,423,159,PARKS & RECREATION,2600 BAYSHORE DR,42,0,4416,P752,MIAMI,0,0,0,0, ,R318,45,Park
-8926903.7405991,2976831.87209189,424,160,VILLAGE SOUTH,4900 NE 2ND AVE,49,0,846,P125,MIAMI,0,0,0,0, ,R068,16,Rehabilitation Center
-8926661.97101125,2971515.18318745,425,161,COLLEGE/BAYSIDE MM,225 NE 3RD ST,34,0,2371,P446,MIAMI,0,0,0,0, ,R170,36,MetroMover Station
-8927791.91655415,2970141.2925662,426,162,344X,NB I95 FROM SW 8 ST,48,0,3242,P742,MIAMI,0,0,0,0, ,R261,37,Ramp
-8929122.18999184,2968080.87685548,427,163,340X,NB I95 FROM US1,48,0,3934,P757,FHP MIAMI,0,0,0,0, ,R311,44,Ramp
-8928905.09693568,2975842.02566412,428,164,358X,NB I95 FROM 112,48,0,1017,P413,MIAMI,0,0,0,0, ,R085,17,Ramp
-8929091.00049307,2975842.02637988,429,165,359X,NB I95 FROM 112 CP,48,0,1017,P413,MIAMI,0,0,0,0, ,R085,17,Ramp
-8928132.5397683,2975842.02268842,430,166,357X,NB I95 FROM 195,48,0,941,P114,MIAMI,0,0,0,0, ,R076,16,Ramp
-8926770.36797938,2971862.67114856,431,167,FREEDOM TOWER MM STA,600 NE 2ND AVE,34,0,2263,P444,MIAMI,0,0,0,0, ,R166,36,MetroMover Station
-8926778.01884953,2972102.18257699,432,168,PARK WEST MM STA,800 NE 2ND AVE,34,0,2146,P443,MIAMI,0,0,0,0, ,R161,23,MetroMover Station
-8926788.28111812,2972454.15681856,433,169,ELEVENTH ST MM STA,1098 NE 2ND AVE,34,0,2059,P443,MIAMI,0,0,0,0, ,R161,23,MetroMover Station
-8927077.55540961,2973014.71258499,434,170,SCHOOL BOARD MM STA,50 NE 15TH ST,34,0,1876,P442,MIAMI,0,0,0,0, ,R155,23,MetroMover Station
-8927285.79546912,2971256.68046768,435,171,GOVERNMENT CENTER MR,101 NW 1ST ST,34,0,2513,P446,MIAMI,0,0,0,0, ,R169,36,MetroMover Station
-8926595.37134676,2973843.31982261,436,172,CACTUS REST LOUNGE,2041 BISCAYNE BLVD,52,0,1618,P425,MIAMI,0,0,0,0, ,R133,21,Restaurant
-8927195.42024867,2971481.30891737,437,173,MIAMI PRKG LOT 47,40 NW 3RD ST,43,0,2445,P446,MIAMI,0,0,0,0, ,R169,36,Parking Garage/Lot
-8926052.37128112,2978846.38797076,438,174,UPPER EASTSIDE NET,6599 BISCAYNE BLVD,39,0,182,P133,MIAMI,0,0,0,0, ,R029,14,NET Office
-8927012.21430387,2980095.20759781,439,175,LITTLE HAITI NET,7815 NE 2ND AVE,39,0,105,P122,MIAMI,0,0,0,0, ,R011,9,NET Office
-8928317.34882963,2968493.67637776,440,176,342X,NB I95 FROM 25 RD,48,0,3806,P741,MIAMI,0,0,0,0, ,R274,37,Ramp
-8927885.41775273,2972957.38115766,441,177,365X,EB 836 TO 395,48,0,1774,P432,MIAMI,0,0,0,0, ,R145,23,Ramp
-8928442.00102422,2978556.55291389,442,178,362X,NB I95 FROM 62 ST,48,0,364,P123,MIAMI,0,0,0,0, ,R034,13,Ramp
-8928410.83039959,2979037.67677145,443,179,363X,NB I95 FROM 69 ST,48,0,269,P121,MIAMI,0,0,0,0, ,R024,13,Ramp
-8928379.6764143,2972922.7659154,444,180,354X,NB I95 FROM 836,48,0,1896,P432,FHP MIAMI,0,0,0,0, ,R152,23,Ramp
-8927668.35018223,2970828.57548169,445,181,345X,NB I95 TO BISC BL,48,0,2776,P445,MIAMI,0,0,0,0, ,R172,36,Ramp
-8927080.58323163,2970828.5732111,446,182,478X,NB I95 TO SE 1 AV,48,0,2762,P445,MIAMI,0,0,0,0, ,R172,36,Ramp
-8926864.62338037,2970828.57237354,447,183,479X,NB I95 TO SE 2 AV,48,0,2757,P445,MIAMI,0,0,0,0, ,R172,36,Ramp
-8927668.34950594,2971103.0032923,448,184,347X,NB I95 TO NW 2 ST,48,0,2634,P445,MIAMI,0,0,0,0, ,R172,36,Ramp
-8927791.91754824,2969764.28943555,449,185,343X,NB I95 TO SW 8 ST,48,0,3475,P742,FHP MIAMI,0,0,0,0, ,R269,37,Ramp
-8929225.63891789,2978296.76866116,450,186,MODEL CITY NET,1000 NW 62ND ST,39,0,500,P114,MIAMI,0,0,0,0, ,R040,12,NET Office
-8927534.36790129,2975346.57510835,451,187,WYNWOOD/EDGEWATER NE,101 NW 34TH ST,39,0,1208,P422,MIAMI,0,0,0,0, ,R096,21,NET Office
-8930845.85264197,2973773.77985089,452,188,ALLAPATTAH NET,1888 NW 21ST ST,39,0,1644,P415,MIAMI,0,0,0,0, ,R125,19,NET Office
-8927828.19102255,2973020.43302091,453,189,OVERTOWN NET,1490 NW 3RD AVE,39,0,1774,P432,MIAMI,0,0,0,0, ,R145,23,NET Office
-8927278.47837378,2972209.500985,454,190,DOWNTOWN NET,63 NW 9TH ST,39,0,2111,P443,MIAMI,0,0,0,0, ,R160,23,NET Office
-8928111.97957734,2970963.95516645,455,191,E. LITTLE HAVANA NET,111 SW 5TH AVE,39,0,2737,P732,MIAMI,0,0,0,0, ,R247,36,NET Office
-8934355.92063237,2972169.40498265,456,192,FLAGAMI NET,3802 NW 11TH ST,39,0,2181,P712,MIAMI,0,0,0,0, ,R188,27,NET Office
-8932311.01314395,2965242.64234111,457,193,NE COCONUT GROVE NET,2820 MC FARLANE RD,39,0,4444,P752,MIAMI,0,0,0,0, ,R324,46,NET Office
-8929420.1959556,2969491.42358774,458,194,CORAL WAY NET,1300 SW 12TH AVE,39,0,3598,P742,MIAMI,0,0,0,0, ,R258,38,NET Office
-8927093.52581419,2972439.06794282,459,195,CLUB SPACE,34 NE 11TH ST,40,0,2061,P443,MIAMI,0,0,0,0, ,R160,23,Night Club
-8927066.23335407,2971620.33027427,460,196,FED DETENTION CENTER,33 NE 4TH ST,29,0,2330,P446,MIAMI,0,0,0,0, ,R169,36,Jail/Detention Center
-8927080.18298126,2972456.87060793,461,197,GOLD RUSH,29 NE 11TH ST,1,0,2052,P443,MIAMI,0,0,0,0, ,R160,23,Adult Entertainment
-8932453.53048635,2965576.91713637,462,198,CLUB 609,3342 VIRGINIA ST,40,0,4432,P752,MIAMI,0,0,0,0, ,R323,46,Night Club
-8926900.20308539,2970458.70449654,463,199,U. S. CUSTOM DOCKS,77 SE 5TH ST,48,0,3041,P741,MIAMI,0,0,0,0, ,R249,36,Ramp
-8928442.00864957,2975567.50715581,464,200,355X,NB I95 TO 112,48,0,1092,P413,MIAMI,0,0,0,0, ,R150,21,Ramp
-8928287.28093784,2973059.99835343,465,201,356X,NB I95 TO 195,48,0,1783,P432,FHP MIAMI,0,0,0,0, ,R145,23,Ramp
-8924919.54665232,2972619.18928485,466,202,PARROT JUNGLE,1111 PARROT JUNGLE TRL,60,0,4214,P443,MIAMI,0,0,0,0, ,R176,22,Tourist Attraction
-8928411.19221429,2970720.25308179,467,203,ADA MERRITT ELEM,660 SW 3RD ST,54,0,2886,P732,MIAMI,0,0,0,0, ,R245,36,School
-8927593.39791567,2971596.02994869,468,204,ALARM OFFICE,400 NW 2ND AVE,22,0,2341,P445,MIAMI,0,0,0,0, ,R168,36,Fire Facility
-8926320.44488572,2975878.80083428,469,205,ALBERT PALLOT PK,3801 NE 6TH AVE,42,0,1059,P134,MIAMI,0,0,0,0, ,R069,15,Park
-8929905.37798057,2976469.50794208,470,206,ALLAPATTAH MIDDLE,1331 NW 46TH ST,54,0,854,P115,MIAMI,0,0,0,0, ,R063,17,School
-8929557.30356187,2975442.68793397,471,207,ALLAPATTAH MR STA,3501 NW 12TH AVE,35,0,1177,P413,MIAMI,0,0,0,0, ,R092,20,MetroRail Station
-8926597.5749297,2971874.79993264,472,208,AMERI AIRLINES ARENA,601 BISCAYNE BLVD,4,0,2259,P444,MIAMI,0,0,0,0, ,R166,36,Auditorium
-8927284.75297337,2971715.40107185,473,209,ARENA METROMOVER,90 NW 5TH ST,34,0,2333,P446,MIAMI,0,0,0,0, ,R169,36,MetroMover Station
-8932739.99152704,2965211.80719164,474,210,BARNACLE STATE PK,3485 MAIN HWY,42,0,4446,P756,MIAMI,0,0,0,0, ,R330,46,Park
-8928962.94858691,2973260.90327438,475,211,BASCOM PALMER,900 NW 17TH ST,27,0,1799,P418,MIAMI,0,0,0,0, ,R138,24,Hospital
-8926438.9368534,2971008.29570801,476,212,BAYFRONT METROMOVER,150 S BISCAYNE BLVD,34,0,2700,P446,MIAMI,0,0,0,0, ,R174,36,MetroMover Station
-8926438.9368534,2971008.29570801,477,213,BAYFRONT PARK STA,150 S BISCAYNE BLVD,42,0,2700,P446,MIAMI,0,0,0,0, ,R174,36,Park
-8927823.08125539,2972030.1630564,478,214,350X,NB I95 TO 395,48,0,2209,P434,FHP MIAMI,0,0,0,0, ,R164,23,Ramp
-8928472.05868515,2978006.18641475,479,215,361X,NB I95 TO 62 ST,48,0,488,P123,MIAMI,0,0,0,0, ,R042,13,Ramp
-8928595.61842149,2979930.70518148,480,216,364X,NB I95 TO 79 ST,48,0,137,P121,MIAMI,0,0,0,0, ,R008,10,Ramp
-8928132.54774549,2972716.29986287,481,217,351X,NB I95 TO 836,48,0,1933,P432,FHP MIAMI,0,0,0,0, ,R154,23,Ramp
-8927019.35320766,2972545.68586449,482,218,484X,NB I95 TO NE 2 AV,48,0,2022,P443,MIAMI,0,0,0,0, ,R160,23,Ramp
-8928442.00864957,2975567.50715581,483,219,485X,NB I95 TO 195,48,0,1092,P413,MIAMI,0,0,0,0, ,R150,21,Ramp
-8927111.75211064,2971068.38843311,484,220,470X,SB I95 FROM MIAMI AV,48,0,2651,P445,MIAMI,0,0,0,0, ,R172,36,Ramp
-8925284.04875262,2979278.66252467,485,221,BAYWOOD PK,890 NE 69TH ST,42,0,182,P133,MIAMI,0,0,0,0, ,R029,14,Park
-8925646.92277848,2980014.90299801,486,222,BELLE MEADE PK,775 NE 77TH ST,42,0,140,P133,MIAMI,0,0,0,0, ,R013,9,Park
-8932567.38099009,2973588.50254747,487,223,BENEVOLENT ASSOC,2980 NW SOUTH RIVER DR,22,0,1694,P715,MIAMI,0,0,0,0, ,R181,26,Fire Facility
-8924424.19613352,2973186.87066092,488,224,SAN MARCO ISLAND,1300 VENETIAN WAY,51,0,1808,P441,MIAMI,0,0,0,0, ,R175,22,Residential Community
-8927823.08311988,2971309.44630451,489,225,475X,SB I95 FROM NW 2 ST,48,0,2458,P445,MIAMI,0,0,0,0, ,R167,36,Ramp
-8928664.05391282,2970719.13918485,490,226,RIVERSIDE PARK,301 SW 8TH AVE,42,0,2891,P732,MIAMI,0,0,0,0, ,R245,35,Park
-8926337.13154094,2973379.2691166,491,227,MARGARET PACE PARK,1799 BAYSHORE DR,42,0,1592,P425,MIAMI,0,0,0,0, ,R133,23,Park
-8934007.99054388,2972545.71216861,492,228,157X,EB 836 FROM 37 AV,48,0,2035,P715,MIAMI,0,0,0,0, ,R189,26,Ramp
-8937655.92827914,2972270.02988703,493,229,150X,EB 836 FROM 57 AV,48,0, , , ,0,0,0,0, , ,28,Ramp
-8928379.6764143,2972922.7659154,494,230,166X,EB 836 TO NB I95,48,0,1896,P432,FHP MIAMI,0,0,0,0, ,R152,23,Ramp
-8932121.12589489,2972441.85728999,495,231,160X,EB 836 TO NB 27 AV,48,0,2068,P735,MIAMI,0,0,0,0, ,R194,25,Ramp
-8928866.92309797,2974635.99078928,496,232,BECKHAM HALL,800 NW 28TH ST,29,0,1415,P418,MIAMI,0,0,0,0, ,R116,20,Jail/Detention Center
-8927140.04993923,2971614.91815874,497,233,MIAMI AVENUE BRIDGE,400 MIAMI AVE,9,0,2333,P446,MIAMI,0,0,0,0, ,R169,36,Bridge
-8930184.17506879,2975527.80237242,498,234,NEW HORIZONS,1469 NW 36TH ST,49,0,1159,P412,MIAMI,0,0,0,0, ,R082,17,Rehabilitation Center
-8928347.07158745,2972529.59281758,499,235,BOOKER T WASHINGTON,1200 NW 6TH AVE,54,0,1999,P432,MIAMI,0,0,0,0, ,R152,23,School
-8931831.09227509,2970800.27095395,500,236,MIAMI SENIOR HIGH,2450 SW 1ST ST,54,0,2866,P737,MIAMI,0,0,0,0, ,R237,34,School
-8929004.47587124,2971442.47758365,501,237,VICTORIA HOSPITAL,955 NW 3RD ST,27,0,2421,P731,MIAMI,0,0,0,0, ,R215,35,Hospital
-8926603.51642347,2974453.90059639,502,238,EDGEWATER MINI STA,2511 BISCAYNE BLVD,39,0,1435,P423,MIAMI,0,0,0,0, ,R121,21,NET Office
-8933833.37714549,2966066.26404968,503,239,CORAL GABLES HOSPITA,3100 DOUGLAS RD,27,0,4097,P751,MIAMI,0,0,0,0, ,R320,47,Hospital
-8927827.23191196,2972996.39161535,504,240,OVERTOWN MINI STA,1470 NW 3RD AVE,39,0,1774,P432,MIAMI,0,0,0,0, ,R145,23,NET Office
-8935151.24120243,2972407.25061305,505,241,152X,EB 836 TO NB 42 AV,48,0,2039,P712,MIAMI,0,0,0,0, ,R187,27,Ramp
-8932026.37278818,2965466.52514696,506,242,SEMINOLE BOAT DOCKS,2760 S BAYSHORE DR,33,0,4440,P752,MIAMI,0,0,0,0, ,R324,46,Marina
-8930535.46270104,2972345.78144786,507,243,SEWELL PK,1801 NW SOUTH RIVER DR,42,0,2033,P735,MIAMI,0,0,0,0, ,R193,25,Park
-8930801.27332483,2968690.5603718,508,244,SHENANDOAH MIDDLE,1950 SW 19TH ST,54,0,3823,P743,MIAMI,0,0,0,0, ,R285,39,School
-8930899.08591063,2977331.48391369,509,245,SIMONYOOF PK,1850 NW 54TH ST,42,0,771,P115,MIAMI,0,0,0,0, ,R052,17,Park
-8929876.57587631,2973119.59753579,510,246,SINGER PLAZA,1310 NW 16TH ST,55,0,1853,P417,MIAMI,0,0,0,0, ,R137,24,Shopping Center
-8929644.587713,2967310.94092039,511,247,ST JOSEPH CONVENT,3665 S MIAMI AVE,12,0,4262,P757,MIAMI,0,0,0,0, ,R312,44,Church
-8929575.61569888,2967363.37924373,512,248,ST KIERAN CATHOLIC,3605 S MIAMI AVE,12,0,4262,P757,MIAMI,0,0,0,0, ,R312,44,Church
-8924601.8211893,2967113.36656927,513,249,STADIUM DRY DOCK,3501 RICKENBACKER CSWY,20,0,4222,P741,MIAMI,0,0,0,0, ,R334,52,Dry Dock
-8927284.75297337,2971715.40107185,514,250,STATE PZ METROMOVER,90 NW 5TH ST,34,0,2333,P446,MIAMI,0,0,0,0, ,R169,36,MetroMover Station
-8929972.95562032,2966945.67152249,515,251,STEELE PK,3500 HIAWATHA AVE,42,0,4274,P757,MIAMI,0,0,0,0, ,R310,44,Park
-8922941.14426762,2965416.85931015,516,252,SUNDAYS ON THE BAY,5420 CRANDON BLVD,52,0, , , ,0,0,0,0, , ,52,Restaurant
-8928042.87294952,2970973.1706415,517,253,SW 1 ST BRIDGE,450 SW 1ST ST,9,0,2737,P732,MIAMI,0,0,0,0, ,R247,36,Bridge
-8927552.73698937,2970440.23345853,518,254,SW 2 AV BRIDGE,550 SW 2ND AVE,9,0,3016,P741,MIAMI,0,0,0,0, ,R248,36,Bridge
-8926985.59545008,2969923.44808525,519,255,TENTH ST MM STA,1011 SE 1ST AVE,34,0,3392,P741,MIAMI,0,0,0,0, ,R262,37,MetroMover Station
-8933524.06460719,2966781.03725024,520,256,THE ENGLISH CENTER,3501 SW 28TH ST,54,0,4045,P745,MIAMI,0,0,0,0, ,R304,42,School
-8927328.82557432,2970896.56256458,521,257,471X,SB I95 FROM SE 2 AV,48,0,2768,P445,MIAMI,0,0,0,0, ,R172,36,Ramp
-8927915.48131542,2970073.30812339,522,258,472X,SB I95 FROM SW 8 ST,48,0,3248,P734,MIAMI,0,0,0,0, ,R260,37,Ramp
-8928905.09693568,2975842.02566412,523,259,459X,SB I95 FROM 112,48,0,1017,P413,MIAMI,0,0,0,0, ,R085,17,Ramp
-8928132.5397683,2975842.02268842,524,260,460X,SB I95 FROM 195,48,0,941,P114,MIAMI,0,0,0,0, ,R076,16,Ramp
-8928503.22797658,2978075.44503318,525,261,454X,SB I95 FROM 62 ST,48,0,489,P114,MIAMI,0,0,0,0, ,R041,13,Ramp
-8928720.2958486,2980068.00420398,526,262,450X,SB I95 FROM 79 ST,48,0,135,P112,MIAMI,0,0,0,0, ,R023,10,Ramp
-8928534.41058533,2972922.76645249,527,263,465X,SB I95 FROM 836,48,0,1788,P432,FHP MIAMI,0,0,0,0, ,R152,23,Ramp
-8925271.92363162,2973093.42397579,528,264,BISCAYNE ISLAND,900 VENETIAN WAY,3,0,1840,P441,MIAMI,0,0,0,0, ,R175,22,Apartment
-8928754.15837874,2968789.64855746,529,265,BETH DAVID SYNAGOGUE,2625 SW 3RD AVE,12,0,3791,P742,MIAMI,0,0,0,0, ,R270,38,Church
-8926910.49651445,2970929.18984819,530,266,KNIGHT CENTER MM STA,100 SE 2ND ST,34,0,2757,P445,MIAMI,0,0,0,0, ,R172,36,MetroMover Station
-8926696.86173944,2971277.46882314,531,267,FIRST STREET MM STA,225 NE 1ST ST,34,0,2491,P446,MIAMI,0,0,0,0, ,R170,36,MetroMover Station
-8926479.64679443,2971333.33963996,532,268,BAYFRONT PARK MM,150 BISCAYNE BLVD,42,0,2488,P446,MIAMI,0,0,0,0, ,R170,36,Park
-8927284.75297337,2971715.40107185,533,269,ARENA/STATE PLAZA MM,90 NW 5TH ST,56,0,2333,P446,MIAMI,0,0,0,0, ,R169,36,Sport Complex
-8925422.64032996,2973084.38075454,534,270,VENETIAN TOLL GATE,840 VENETIAN WAY,59,0,1840,P441,MIAMI,0,0,0,0, ,R175,22,Toll
-8928314.66626293,2968141.111594,535,271,RICKENBACKER TOLL PZ,2601 BRICKELL AVE,56,0,4223,P757,MIAMI,0,0,0,0, ,R312,37,Sport Complex
-8927760.74467356,2971137.61659928,536,272,468X,SB I95 TO BISC BL,48,0,2634,P445,MIAMI,0,0,0,0, ,R167,36,Ramp
-8928442.01424273,2973369.08681495,537,273,462X,SB I95 TO NW 14 ST,48,0,1656,P418,MIAMI,0,0,0,0, ,R138,23,Ramp
-8928193.7734781,2972716.30010099,538,274,464X,SB I95 TO NW 8 ST,48,0,1937,P432,MIAMI,0,0,0,0, ,R152,23,Ramp
-8927297.6561428,2970861.95008446,539,275,467X,SB I95 TO S MIAMI AV,48,0,2768,P445,MIAMI,0,0,0,0, ,R172,36,Ramp
-8927823.08311988,2971309.44630451,540,276,469X,SB I95 TO SW 7 ST,48,0,2458,P445,MIAMI,0,0,0,0, ,R167,36,Ramp
-8928843.89091523,2968184.69333889,541,277,474X,SB I95 TO US1,48,0,3865,P742,FHP MIAMI,0,0,0,0, ,R270,44,Ramp
-8926613.09064709,2971868.03068924,542,278,FREEDOM TOWER,600 BISCAYNE BLVD,11,0,2285,P444,MIAMI,0,0,0,0, ,R166,36,Business
-8932041.51785633,2966846.56069884,543,279,MIAMI PRKG LOT 1,2790 SW 27TH AVE,43,0,4326,P755,MIAMI,0,0,0,0, ,R317,42,Parking Garage/Lot
-8928773.13013289,2978229.08202536,544,280,MIAMI PRKG LOT 7,6116 NW 7TH AVE,43,0,494,P114,MIAMI,0,0,0,0, ,R041,12,Parking Garage/Lot
-8929862.16747445,2971049.71639386,545,281,MIAMI PRKG LOT 27,1417 FLAGLER ST,43,0,2643,P733,MIAMI,0,0,0,0, ,R214,35,Parking Garage/Lot
-8927258.13276053,2980197.62157569,546,282,MIAMI PRKG LOT 3,130 NE 79TH ST,43,0,114,P122,MIAMI,0,0,0,0, ,R010,10,Parking Garage/Lot
-8927097.86301431,2980608.36728277,547,283,MIAMI PRKG LOT 4,175 NE 82ND TER,43,0,40,P121,MIAMI,0,0,0,0, ,R003,10,Parking Garage/Lot
-8927098.00366409,2980499.04946416,548,284,MIAMI PRKG LOT 5,179 NE 82ND ST,43,0,48,P121,MIAMI,0,0,0,0, ,R003,10,Parking Garage/Lot
-8927863.68456851,2971356.2138103,549,285,MIAMI PRKG LOT 11,315 NW 2ND ST,43,0,2459,P445,MIAMI,0,0,0,0, ,R167,36,Parking Garage/Lot
-8927854.94995064,2971339.7122988,550,286,MIAMI PRKG LOT 12,310 NW 2ND ST,43,0,2458,P445,MIAMI,0,0,0,0, ,R167,36,Parking Garage/Lot
-8927784.30334429,2971477.10688648,551,287,MIAMI PRKG LOT 13,315 NW 3RD ST,43,0,2402,P445,FHP MIAMI,0,0,0,0, ,R168,36,Parking Garage/Lot
-8927286.92872384,2971615.78762638,552,288,MIAMI PRKG LOT 10,95 NW 4TH ST,43,0,2333,P446,MIAMI,0,0,0,0, ,R169,36,Parking Garage/Lot
-8927053.99448114,2975679.00266403,553,289,MIAMI PRKG LOT 52,3645 NE 1ST AVE,43,0,1121,P422,MIAMI,0,0,0,0, ,R096,16,Parking Garage/Lot
-8926942.67245112,2975662.23647678,554,290,MIAMI PRKG LOT 53,3647 NE 1ST CT,43,0,1120,P422,MIAMI,0,0,0,0, ,R096,16,Parking Garage/Lot
-8926858.86127825,2975679.65306798,555,291,MIAMI PRKG LOT 54,3636 NE 2ND AVE,43,0,1120,P422,MIAMI,0,0,0,0, ,R096,16,Parking Garage/Lot
-8926842.41787248,2975698.06566915,556,292,MIAMI PRKG LOT 55,3655 NE 2ND AVE,43,0,1118,P422,MIAMI,0,0,0,0, ,R096,15,Parking Garage/Lot
-8926635.33629528,2971979.05358871,557,293,MIAMI PRKG LOT 24,701 BISCAYNE BLVD,43,0,2144,P444,MIAMI,0,0,0,0, ,R166,23,Parking Garage/Lot
-8927574.27073633,2972200.07989898,558,294,MIAMI PRKG LOT 57,185 NW 9TH ST,43,0,2115,P434,MIAMI,0,0,0,0, ,R159,23,Parking Garage/Lot
-8927487.26625761,2972013.65081546,559,295,MIAMI PRKG LOT 59,750 NW 1ST CT,43,0,2206,P434,MIAMI,0,0,0,0, ,R164,23,Parking Garage/Lot
-8927484.36831408,2971896.23530789,560,296,MIAMI PRKG LOT 60,650 NW 1ST CT,43,0,2244,P434,MIAMI,0,0,0,0, ,R164,36,Parking Garage/Lot
-8927367.58087558,2971959.85708791,561,297,MIAMI PRKG LOT 61,700 NW 1ST AVE,43,0,2200,P444,MIAMI,0,0,0,0, ,R165,23,Parking Garage/Lot
-8926955.63412597,2971797.81720844,562,298,MIAMI PRKG LOT 62,550 NW 1ST AVE,43,0,2289,P444,MIAMI,0,0,0,0, ,R165,36,Parking Garage/Lot
-8927306.73784817,2971610.05364972,563,299,MIAMI PRKG LOT 63,400 NW 1ST AVE,43,0,2336,P446,MIAMI,0,0,0,0, ,R169,36,Parking Garage/Lot
-8926938.7336446,2971798.48061415,564,300,MIAMI PRKG LOT 65,551 NW 1ST AVE,43,0,2286,P444,MIAMI,0,0,0,0, ,R166,36,Parking Garage/Lot
-8927500.96762908,2972134.38801411,565,301,MIAMI PRKG LOT 58,850 NW 1ST CT,43,0,2158,P434,MIAMI,0,0,0,0, ,R159,23,Parking Garage/Lot
-8927814.02971558,2971359.29988424,566,302,MIAMI PRKG LOT 2,295 NW 2ND ST,43,0,2458,P445,MIAMI,0,0,0,0, ,R167,36,Parking Garage/Lot
-8927672.88226906,2971007.26386388,567,303,MIAMI PRKG LOT 15,236 SW 1ST ST,43,0,2719,P445,FHP MIAMI,0,0,0,0, ,R167,36,Parking Garage/Lot
-8927345.97244716,2970933.50888595,568,304,MIAMI PRKG LOT 33,107 SW 2ND ST,43,0,2715,P445,MIAMI,0,0,0,0, ,R172,36,Parking Garage/Lot
-8927331.43784123,2970917.48667571,569,305,MIAMI PRKG LOT 34,102 SW 2ND ST,43,0,2768,P445,MIAMI,0,0,0,0, ,R172,36,Parking Garage/Lot
-8927338.11386398,2970917.01627348,570,306,MIAMI PRKG LOT 36,104 SW 2ND ST,43,0,2768,P445,MIAMI,0,0,0,0, ,R172,36,Parking Garage/Lot
-8927241.91105372,2970938.37877757,571,307,MIAMI PRKG LOT 37,63 SW 2ND ST,43,0,2710,P445,MIAMI,0,0,0,0, ,R172,36,Parking Garage/Lot
-8927324.76181744,2970917.95718646,572,308,MIAMI PRKG LOT 38,100 SW 2ND ST,43,0,2768,P445,MIAMI,0,0,0,0, ,R172,36,Parking Garage/Lot
-8926702.30318562,2971155.85730269,573,309,MIAMI PRKG LOT 32,213 FLAGLER ST,43,0,2565,P446,MIAMI,0,0,0,0, ,R170,36,Parking Garage/Lot
-8929310.1814052,2972358.86876384,574,310,MIAMI PRKG LOT 8,1145 NW 11TH ST,43,0,2009,P433,MIAMI,0,0,0,0, ,R148,24,Parking Garage/Lot
-8926754.37257615,2971304.82102499,575,311,MIAMI PRKG LOT 41,130 NE 2ND AVE,43,0,2496,P446,MIAMI,0,0,0,0, ,R170,36,Parking Garage/Lot
-8927787.40014498,2971020.11715374,576,312,MIAMI PRKG LOT 14,295 SW 1ST ST,43,0,2659,P445,MIAMI,0,0,0,0, ,R167,36,Parking Garage/Lot
-8926865.08795579,2972593.69931844,577,313,MIAMI PRKG LOT 51,150 NE 12TH ST,43,0,2020,P442,MIAMI,0,0,0,0, ,R156,23,Parking Garage/Lot
-8926424.58409119,2971386.68362056,578,314,MIAMI PRKG LOT 20,195 BISCAYNE BLVD,43,0,2257,P446,MIAMI,0,0,0,0, ,R171,36,Parking Garage/Lot
-8928291.88157061,2974547.1236777,579,315,MIAMI PRKG LOT 21,550 NW 27TH ST,43,0,1434,P424,MIAMI,0,0,0,0, ,R118,21,Parking Garage/Lot
-8929480.8387587,2972690.49884426,580,316,MIAMI PRKG LOT 25,1355 NW 12TH AVE,43,0,1952,P418,MIAMI,0,0,0,0, ,R138,24,Parking Garage/Lot
-8929917.69247493,2972723.23746961,581,317,MIAMI PRKG LOT 26,1355 NW 14TH AVE,43,0,1965,P417,MIAMI,0,0,0,0, ,R137,24,Parking Garage/Lot
-8926729.36442033,2971120.52062734,582,318,GUATEMALA CONSULATE,25 SE 2ND AVE,16,0,2633,P446,MIAMI,0,0,0,0, ,R174,36,Consulate/Embassy
-8928163.71746254,2972579.07034505,583,319,168X,EB 836 TO NW 8 ST,48,0,1937,P432,MIAMI,0,0,0,0, ,R152,23,Ramp
-8928534.41058533,2972922.76645249,584,320,167X,EB 836 TO SB I95,48,0,1788,P432,FHP MIAMI,0,0,0,0, ,R152,23,Ramp
-8924779.74315397,2980271.47389406,585,321,FLORIDA MARINE PATRO,1275 NE 79TH ST,45,0,75,P131,MIAMI,0,0,0,0, ,R007,8,Police Facility
-8931121.75778852,2966715.50384329,586,322,SILVER BLUFF PARK,2901 SW 22ND AVE,42,0,4284,P753,MIAMI,0,0,0,0, ,R308,43,Park
-8931278.08792466,2970930.75571611,587,323,SOUTH SUBSTATION,2200 FLAGLER ST,46,0,2774,P737,MIAMI,0,0,0,0, ,R237,34,Police Station
-8933793.05190258,2965270.08935161,588,324,FRANCES TUCKER ELEM,3500 SW 37TH AVE,54,0,4131,P754,MIAMI,0,0,0,0, ,R325,47,School
-8934813.25547236,2971710.62703684,589,325,FIRE STATION 10,4101 NW 7TH ST,23,0,2279,P712,MIAMI,0,0,0,0, ,R188,27,Fire Station
-8931247.99728905,2971603.36377568,590,326,CITRUS GROVE ELEM,2121 NW 5TH ST,54,0,2351,P736,MIAMI,0,0,0,0, ,R211,34,School
-8929640.89687253,2968632.46999836,591,327,CORAL WAY ELEM,1950 SW 13TH AVE,54,0,3809,P743,MIAMI,0,0,0,0, ,R289,38,School
-8927831.99684969,2972573.82394582,592,328,DOUGLAS ELEM,312 NW 12TH ST,54,0,1933,P432,MIAMI,0,0,0,0, ,R154,23,School
-8926889.18877738,2976916.06155648,593,329,CURLEY SENIOR,4949 NE 2ND AVE,53,0,802,P125,MIAMI,0,0,0,0, ,R068,15,Retirement Home
-8931591.04080195,2973168.32413013,594,330,CURTIS POOL,2300 NW NORTH RIVER DR,42,0,1772,P416,MIAMI,0,0,0,0, ,R134,25,Park
-8932429.06006017,2970908.72449812,595,331,DADE CO AUDITORIUM,2901 W FLAGLER ST,4,0,2516,P716,MIAMI,0,0,0,0, ,R208,33,Auditorium
-8929657.35620467,2972643.3786787,596,332,DADE COUNTY JAIL,1321 NW 13TH ST,29,0,1964,P417,MIAMI,0,0,0,0, ,R137,24,Jail/Detention Center
-8926856.28855598,2975997.13175428,597,333,DASH SENIOR,4001 NE 2ND AVE,53,0,1030,P126,MIAMI,0,0,0,0, ,R078,15,Retirement Home
-8928534.39492021,2979071.07197991,598,334,451X,SB I95 TO 69 ST,48,0,270,P112,MIAMI,0,0,0,0, ,R023,13,Ramp
-8928442.01424273,2973369.08681495,599,335,461X,SB I95 TO 836,48,0,1656,P418,MIAMI,0,0,0,0, ,R138,23,Ramp
-8925967.37617477,2975739.37900695,600,336,241X,WB JULIA TUTTLE CSWY TO BISC BL,48,0,1085, ,MIAMI,0,0,0,0, , ,15,Ramp
-8930018.2916683,2975876.65404685,601,337,252X,WB 112 TO 17 AV,48,0,1083,P115,MIAMI,0,0,0,0, ,R073,17,Ramp
-8930791.96196449,2975876.65714253,602,338,254X,WB 112 TO 22 AV,48,0,1077,P115,MIAMI,0,0,0,0, ,R071,17,Ramp
-8930141.85621015,2975876.65449568,603,339,251X,WB 112 TOLL PZ,48,0,1083,P115,MIAMI,0,0,0,0, ,R072,17,Ramp
-8931981.8087072,2965503.92216851,604,340,DINNER KEY AUD,2700 S BAYSHORE DR,4,0,4416,P752,MIAMI,0,0,0,0, ,R318,45,Auditorium
-8927835.59628272,2972573.75274528,605,341,DOUGLASS ELEM,314 NW 12TH ST,54,0,1933,P432,MIAMI,0,0,0,0, ,R154,23,School
-8927350.77613609,2971253.95227883,606,342,GOV CTR METROMOVER,111 NW 1ST ST,34,0,2513,P446,MIAMI,0,0,0,0, ,R169,36,MetroMover Station
-8927350.77613609,2971253.95227883,607,343,GOVERNMENT CENTER,111 NW 1ST ST,64,0,2513,P446,MIAMI,0,0,0,0, ,R169,36,Office
-8931981.8087072,2965503.92216851,608,344,GROVE EXHIBITION CTR,2700 S BAYSHORE DR,17,0,4416,P752,MIAMI,0,0,0,0, ,R318,45,Convention Center
-8930209.90592021,2972045.55106906,609,345,GROVE PK,1600 NW 8TH TER,42,0,2215,P731,MIAMI,0,0,0,0, ,R196,24,Park
-8932785.44318282,2965175.85261639,610,346,GROVE PLAYHOUSE,3500 MAIN HWY,44,0,4453,P756,MIAMI,0,0,0,0, ,R327,46,Theater/Performing Arts
-8926787.86235878,2971136.41798768,611,347,GUSMAN CULTURAL CNTR,174 E FLAGLER ST,44,0,2639,P445,MIAMI,0,0,0,0, ,R172,36,Theater/Performing Arts
-8927236.65280562,2973089.64037724,612,348,HAC,1550 N MIAMI AVE,49,0,1834,P441,MIAMI,0,0,0,0, ,R147,23,Rehabilitation Center
-8926617.48168491,2975842.01676704,613,349,244X,WB 195 FROM BISC BL,48,0,1091,P134,MIAMI,0,0,0,0, ,R069,15,Ramp
-8927328.8132982,2975807.39546517,614,350,246X,WB 195 FROM MIAMI AV,48,0,1087,P125,MIAMI,0,0,0,0, ,R077,16,Ramp
-8926555.14274951,2975876.64059775,615,351,243X,WB 195 FROM NE 38 ST,48,0,1063,P134,MIAMI,0,0,0,0, ,R069,15,Ramp
-8925967.37617477,2975739.37900695,616,352,242X,WB 195 TO BISC BL,48,0,1085, ,MIAMI,0,0,0,0, , ,15,Ramp
-8928132.5397683,2975842.02268842,617,353,247X,WB 195 TO NB I95,48,0,941,P114,MIAMI,0,0,0,0, ,R076,16,Ramp
-8928132.5397683,2975842.02268842,618,354,248X,WB 195 TO SB I95,48,0,941,P114,MIAMI,0,0,0,0, ,R076,16,Ramp
-8928534.40297785,2975911.27250417,619,355,249X,WB 195 TO 112,48,0,941,P114,MIAMI,0,0,0,0, ,R075,16,Ramp
-8926678.71550012,2972579.06446603,620,356,415X,WB 395 FROM MACARTHUR CSWY,48,0,1973,P442,FHP MIAMI,0,0,0,0, ,R156,23,Ramp
-8926988.18369856,2972545.68568986,621,357,263X,WB 395 FROM NE 1 AV,48,0,2022,P443,MIAMI,0,0,0,0, ,R160,23,Ramp
-8927885.41775273,2972957.38115766,622,358,353X,WB 395 TO I95 NB,48,0,1774,P432,MIAMI,0,0,0,0, ,R145,23,Ramp
-8926488.82799853,2971640.5477124,623,359,HARD ROCK CAFE,401 BISCAYNE BLVD,52,0,2257,P446,MIAMI,0,0,0,0, ,R171,36,Restaurant
-8929041.3353594,2973532.96043155,624,360,HIGHLAND PK GARAGE,1801 NW 9TH AVE,43,0,1707,P418,MIAMI,0,0,0,0, ,R138,24,Parking Garage/Lot
-8927337.57887875,2971136.93758855,625,361,HISTORICAL MUSEUM,101 W FLAGLER ST,26,0,2584,P446,MIAMI,0,0,0,0, ,R169,36,Historical Monument
-8932671.60020928,2969999.74161196,626,362,HOME DEPOT,3030 SW 8TH ST,55,0,3371,P717,MIAMI,0,0,0,0, ,R251,40,Shopping Center
-8926726.79706727,2970725.97994299,627,363,HYATT REGENCY,400 SE 2ND AVE,28,0,2852,P445,MIAMI,0,0,0,0, ,R173,36,Hotel/Motel
-8926285.82699357,2970955.53218827,628,364,INTERCONT'L HOTEL,300 CHOPIN PLZ,28,0,2257,P446,MIAMI,0,0,0,0, ,R171,36,Hotel/Motel
-8929502.98775219,2973019.99452698,629,365,JACKSON MED TOWER,1500 NW 12TH AVE,27,0,1806,P417,MIAMI,0,0,0,0, ,R137,24,Hospital
-8926154.66635794,2970165.98398345,630,366,MANDARIN HOTEL,500 BRICKELL KEY DR,28,0,3014,P741,MIAMI,0,0,0,0, ,R335,36,Hotel/Motel
-8926154.66635794,2970165.98398345,631,367,MANDARIN ORIENTAL,500 BRICKELL KEY DR,52,0,3014,P741,MIAMI,0,0,0,0, ,R335,36,Restaurant
-8926333.50645139,2973382.49070519,632,368,MARGARET PACE PK,1801 N BAYSHORE DR,42,0,1592,P425,MIAMI,0,0,0,0, ,R133,23,Park
-8924931.84952603,2967415.69680155,633,369,MARINE STADIUM,3300 RICKENBACKER CSWY,57,0,4222,P741,MIAMI,0,0,0,0, ,R334,52,Stadium
-8931121.75778852,2966715.50384329,634,370,MARJORIE STONEMAN PK,2901 SW 22ND AVE,42,0,4284,P753,MIAMI,0,0,0,0, ,R308,43,Park
-8929932.14938649,2970086.9934295,635,371,MAXIMO GOMEZ PK,1444 SW 8TH ST,42,0,3300,P742,MIAMI,0,0,0,0, ,R257,38,Park
-8930809.22986837,2975034.67154863,636,372,MAYA ANGELOU ELEM,1850 NW 32ND ST,54,0,1320,P412,MIAMI,0,0,0,0, ,R101,19,School
-8932144.16409892,2970217.83295467,637,373,MDCC INTERAMERICAN,627 SW 27TH AVE,54,0,3188,P737,MIAMI,0,0,0,0, ,R238,34,School
-8928163.7164109,2972991.99942353,638,374,466X,WB 395 TO I95 SB,48,0,1777,P432,MIAMI,0,0,0,0, ,R145,23,Ramp
-8926339.19072322,2972716.29280764,639,375,261X,WB 395 TO BISC BL,48,0,1968,P443,FHP MIAMI,0,0,0,0, ,R161,23,Ramp
-8928472.07146352,2972992.00073631,640,376,265X,WB 395 TO 836,48,0,1788,P418,MIAMI,0,0,0,0, ,R138,23,Ramp
-8934966.4505449,2972545.71441157,641,377,278X,WB 836 AT 42 AV,48,0,2039,P712,FHP MIAMI,0,0,0,0, ,R177,27,Ramp
-8926757.69645648,2971508.89834194,642,378,MDCC WOLFSON CAMPUS,300 NE 2ND AVE,54,0,2384,P446,MIAMI,0,0,0,0, ,R170,36,School
-8929029.45878616,2973514.74500985,643,379,MEDICAL EXAMINER,1851 NW 10TH AVE,14,0,1659,P418,MIAMI,0,0,0,0, ,R138,24,Clinic/Health Facility
-8932116.54826976,2974782.73082567,644,380,MELROSE PK,2555 NW 30TH ST,42,0,1363,P414,MIAMI,0,0,0,0, ,R098,19,Park
-8929642.33365376,2967312.65455368,645,381,MERCY HOSPITAL,3663 S MIAMI AVE,27,0,4262,P757,MIAMI,0,0,0,0, ,R312,44,Hospital
-8929637.7129688,2967316.16760262,646,382,MERCY OUTPATIENT CTR,3659 S MIAMI AVE,27,0,4262,P757,MIAMI,0,0,0,0, ,R312,44,Hospital
-8929639.9670291,2967314.45396967,647,383,MERCY PROF BLDG,3661 S MIAMI AVE,14,0,4262,P757,MIAMI,0,0,0,0, ,R312,44,Clinic/Health Facility
-8928742.56031187,2977898.96554977,648,384,EDISON TOWERS,5821 NW 7TH AVE,3,0,542,P114,MIAMI,0,0,0,0, ,R041,13,Apartment
-8926921.6762357,2970185.75322693,649,385,EIGHTH STREET MM STA,59 SE 8TH ST,10,0,3134,P741,MIAMI,0,0,0,0, ,R249,36,Bus Station
-8926246.30181157,2975663.42102812,650,386,ELIZABETH MARTELL PK,3601 NE 7TH AVE,42,0,1113,P423,MIAMI,0,0,0,0, ,R097,15,Park
-8928071.45877527,2974787.25563049,651,387,ENEIDA HARTNER ELEM,401 NW 29TH ST,54,0,1374,P413,MIAMI,0,0,0,0, ,R107,21,School
-8929580.23641318,2967359.86620408,652,388,ERMITA DE LA CARIDAD,3609 S MIAMI AVE,12,0,4262,P757,MIAMI,0,0,0,0, ,R312,44,Church
-8926943.42140341,2969433.96124407,653,389,ESPIRITU SANTO PZ,1395 BRICKELL AVE,55,0,3583,P741,MIAMI,0,0,0,0, ,R262,37,Shopping Center
-8927120.71835656,2971495.49765596,654,390,FEDERAL COURTHOUSE,301 N MIAMI AVE,18,0,2386,P446,MIAMI,0,0,0,0, ,R169,36,Court House
-8926996.88383108,2970466.78809098,655,391,FIFTH ST MM STA,35 SE 5TH ST,34,0,3041,P741,MIAMI,0,0,0,0, ,R249,36,MetroMover Station
-8928195.15852982,2973759.95370626,656,392,DUNBAR ELEM,505 NW 20TH ST,54,0,1599,P431,MIAMI,0,0,0,0, ,R140,21,School
-8928336.98699132,2978785.05457522,657,393,EDISON PARK ELEM,500 NW 67TH ST,54,0,364,P123,MIAMI,0,0,0,0, ,R034,13,School
-8929633.31187965,2978758.7990661,658,394,HOLMES ELEM,1175 NW 67TH ST,54,0,326,P112,MIAMI,0,0,0,0, ,R022,12,School
-8932554.1587986,2972407.24299891,659,395,158X,EB 836 TO SB 27 AV,48,0,2080,P715,MIAMI,0,0,0,0, ,R192,26,Ramp
-8935274.80590313,2972339.25545603,660,396,153X,EB 836 TO SB 42 AV,48,0,2039,P712,MIAMI,0,0,0,0, ,R187,27,Ramp
-8930574.89884483,2972132.78304575,661,397,476X,EB 836 TO SB 17 AV,48,0,2172,P735,MIAMI,0,0,0,0, ,R195,25,Ramp
-8930574.89884483,2972132.78304575,662,398,477X,EB 836 TO NB 17 AV,48,0,2172,P735,MIAMI,0,0,0,0, ,R195,25,Ramp
-8928008.98258962,2972922.76449728,663,399,169X,EB 836 TO 395,48,0,1903,P432,MIAMI,0,0,0,0, ,R154,23,Ramp
-8926726.79706727,2970725.97994299,664,400,HYATT REGENCY HOTEL,400 SE 2ND AVE,28,0,2852,P445,MIAMI,0,0,0,0, ,R173,36,Hotel/Motel
-8932697.54300199,2971798.85245454,665,401,KENSINGTON PARK ELEM,711 NW 30TH AVE,54,0,2157,P715,MIAMI,0,0,0,0, ,R192,26,School
-8935081.48142076,2970942.31321385,666,402,KINLOCH PARK ELEM,4275 NW 1ST ST,54,0,2735,P714,MIAMI,0,0,0,0, ,R203,32,School
-8928448.96008824,2979925.32070766,667,403,LITTLE RIVER ELEM,514 NW 77TH ST,54,0,137,P121,MIAMI,0,0,0,0, ,R008,10,School
-8926313.16307187,2978870.64450689,668,404,MORNINGSIDE ELEM,6620 NE 5TH AVE,54,0,324,P132,MIAMI,0,0,0,0, ,R028,14,School
-8929870.32189807,2977757.76957219,669,405,ORCHARD VILLA ELEM,5720 NW 13TH AVE,54,0,629,P113,MIAMI,0,0,0,0, ,R050,12,School
-8927689.14241444,2976908.21230801,670,406,SHADOWLAWN ELEM,149 NW 49TH ST,54,0,837,P125,MIAMI,0,0,0,0, ,R067,16,School
-8930992.59553783,2969794.61836302,671,407,SHENANDOAH ELEM,1023 SW 21ST AVE,54,0,3470,P743,MIAMI,0,0,0,0, ,R255,39,School
-8931817.57873311,2967372.60196132,672,408,SILVER BLUFF ELEM,2609 SW 25TH AVE,54,0,4260,P743,MIAMI,0,0,0,0, ,R306,43,School
-8939730.64102337,2969766.0325281,673,410,FAIRLAWN LIBRARY,6869 SW 8TH ST,31,0,3486,P713,MIAMI,0,0,0,0, ,R220,29,Library
-8934036.78841191,2972653.88175255,674,411,GRAPELAND HGHTS LIBR,1400 NW 37TH AVE,31,0,1985,P715,MIAMI,0,0,0,0, ,R182,26,Library
-8927337.57887875,2971136.93758855,675,412,MIAMI ART MUSEUM,101 W FLAGLER ST,38,0,2584,P446,MIAMI,0,0,0,0, ,R169,36,Museum
-8927101.64526801,2970585.44457736,676,413,MIAMI AV BRIDGE,450 S MIAMI AVE,9,0,2900,P445,MIAMI,0,0,0,0, ,R173,36,Bridge
-8927118.43950136,2971042.32210266,677,414,MIAMI AV MM STA,90 S MIAMI AVE,34,0,2651,P445,MIAMI,0,0,0,0, ,R172,36,MetroMover Station
-8926381.85822416,2970957.11047828,678,415,MIAMI CENTER,201 S BISCAYNE BLVD,64,0,2257,P446,MIAMI,0,0,0,0, ,R171,36,Office
-8928417.65529749,2978254.50827709,679,416,MIAMI EDISON SENIOR,6161 NW 5TH CT,54,0,487,P123,MIAMI,0,0,0,0, ,R042,13,School
-8930358.93872327,2972270.00769113,680,417,269X,WB 836 FROM NB 17 AV,48,0,2114,P731,MIAMI,0,0,0,0, ,R196,24,Ramp
-8932213.52081871,2972511.08977083,681,418,274X,WB 836 FROM NB 27 AV,48,0,1996,P735,MIAMI,0,0,0,0, ,R193,25,Ramp
-8934935.28090235,2972648.32712795,682,419,279X,WB 836 FROM NB 42 AV,48,0,1711,P712,MIAMI,0,0,0,0, ,R178,27,Ramp
-8930390.10812538,2972270.00778864,683,420,069X,WB 836 FROM SB 17 AV,48,0,2084,P735,MIAMI,0,0,0,0, ,R193,25,Ramp
-8932244.68995657,2972648.31897786,684,421,074X,WB 836 FROM SB 27 AV,48,0,1997,P715,MIAMI,0,0,0,0, ,R191,26,Ramp
-8934966.45041007,2972613.71082448,685,422,486X,WB 836 FROM SB 42 AV,48,0,2032,P712,MIAMI,0,0,0,0, ,R177,27,Ramp
-8935646.61282794,2972304.64059825,686,423,281X,WB 836 FROM 45 AV,48,0,2000,P712,MIAMI,0,0,0,0, ,R177,27,Ramp
-8931935.22231886,2972441.85656381,687,424,271X,WB 836 TO NB 27 AV,48,0,1996,P735,FHP MIAMI,0,0,0,0, ,R193,25,Ramp
-8934471.07906974,2972613.70963009,688,425,276X,WB 836 TO NB 42 AV,48,0,2023,P712,MIAMI,0,0,0,0, ,R178,27,Ramp
-8926306.85224475,2972760.80697641,689,426,MIAMI HERALD,1 HERALD PLZ,11,0,1867,P442,MIAMI,0,0,0,0, ,R156,23,Business
-8930597.84299508,2975515.41014308,690,427,MIAMI JACKSON SENIOR,1751 NW 36TH ST,54,0,1144,P412,MIAMI,0,0,0,0, ,R081,17,School
-8926917.63835295,2977261.76173171,691,428,MIAMI JEWISH HOME,5200 NE 2ND AVE,41,0,754,P124,MIAMI,0,0,0,0, ,R059,16,Nursing Home
-8928931.02863676,2976681.34956348,692,429,MILLER DAWKINS PK,801 NW 47TH TER,42,0,889,P114,MIAMI,0,0,0,0, ,R065,17,Park
-8933240.09353624,2968165.51723482,693,430,MIRACLE CENTER,3301 SW 22ND ST,55,0,3912,P744,MIAMI,0,0,0,0, ,R277,40,Shopping Center
-8927129.21871025,2973675.93782112,694,431,MIRAMAR ELEM,109 NE 19TH ST,54,0,1653,P425,MIAMI,0,0,0,0, ,R142,23,School
-8931483.32017229,2966025.0462665,695,432,MONTY TRAINERS REST,2550 S BAYSHORE DR,52,0,4374,P753,MIAMI,0,0,0,0, ,R319,45,Restaurant
-8927334.46564756,2971023.61593875,696,433,MOVER MAINT BLDG,100 SW 1ST AVE,6,0,2715,P445,MIAMI,0,0,0,0, ,R172,36,Auto Mechanic Shop
-8929225.63891789,2978296.76866116,697,434,MPD NORTH SUB STA,1000 NW 62ND ST,46,0,500,P114,MIAMI,0,0,0,0, ,R040,12,Police Station
-8931278.08792466,2970930.75571611,698,435,MPD SOUTH SUB STA,2200 W FLAGLER ST,46,0,2774,P737,MIAMI,0,0,0,0, ,R237,34,Police Station
-8932678.49230063,2965618.00848909,699,436,MUNROE PK,3320 MATILDA ST,42,0,4434,P752,MIAMI,0,0,0,0, ,R323,46,Park
-8929086.85354475,2967758.96583195,700,437,MUSEUM OF SCIENCE,3280 S MIAMI AVE,38,0,4224,P757,MIAMI,0,0,0,0, ,R311,44,Museum
-8927451.51535209,2971115.96812333,701,438,MUSEUM TOWER,150 W FLAGLER ST,38,0,2656,P445,MIAMI,0,0,0,0, ,R172,36,Museum
-8932204.08519991,2965293.22348222,702,439,MYERS PK,2950 S BAYSHORE DR,42,0,4450,P752,MIAMI,0,0,0,0, ,R324,46,Park
-8927074.63378944,2971382.63307025,703,440,NEW WORLD SCHOOL,25 NE 2ND ST,54,0,2443,P446,MIAMI,0,0,0,0, ,R169,36,School
-8928452.19845518,2976826.89520826,704,441,NORTH BAY VISTA PK,4850 NW 6TH AVE,42,0,775,P125,MIAMI,0,0,0,0, ,R066,16,Park
-8929494.36915484,2979203.72442421,705,442,NORTHWESTERN SENIOR,1100 NW 71ST ST,54,0,277, ,MIAMI,0,0,0,0, , ,12,School
-8929487.2354835,2972030.1397779,706,443,NW 12 AV BRIDGE,850 NW 12TH AVE,9,0,2193,P731,MIAMI,0,0,0,0, ,R196,24,Bridge
-8930385.9615765,2972378.72571258,707,444,NW 17 AV BRIDGE,1150 NW 17TH AVE,9,0,2033,P735,MIAMI,0,0,0,0, ,R193,25,Bridge
-8931321.97350911,2973021.14039054,708,445,NW 22 AV BRIDGE,1550 NW 22ND AVE,9,0,1772,P416,MIAMI,0,0,0,0, ,R134,25,Bridge
-8932261.84090363,2973544.29927229,709,446,NW 27 AV BRIDGE,1950 NW 27TH AVE,9,0,1690,P416,MIAMI,0,0,0,0, ,R134,26,Bridge
-8928616.90788389,2971620.77374066,710,447,NW 5 ST BRIDGE,750 NW 5TH ST,9,0,2391,P732,MIAMI,0,0,0,0, ,R217,35,Bridge
-8926771.99512324,2980865.41549687,711,448,OAKLAND GROVE PK,331 NE 84TH ST,42,0,13,P122,MIAMI,0,0,0,0, ,R004,9,Park
-8926602.37408365,2972984.36515024,712,449,OMNI MM STA,1455 BISCAYNE BLVD,34,0,1870,P442,MIAMI,0,0,0,0, ,R156,23,MetroMover Station
-8926458.12454592,2971150.04481953,713,450,ONE BISCAYNE TOWER,2 S BISCAYNE BLVD,64,0,2629,P446,MIAMI,0,0,0,0, ,R174,36,Office
-8926333.50645139,2973382.49070519,714,451,PACE PK,1801 N BAYSHORE DR,42,0,1592,P425,MIAMI,0,0,0,0, ,R133,23,Park
-8925389.24402744,2979211.01152933,715,452,PALM BAY CLUB,780 NE 69TH ST,3,0,182,P133,MIAMI,0,0,0,0, ,R029,14,Apartment
-8932275.85990204,2972476.47389885,716,453,273X,WB 836 TO SB 27 AV,48,0,1997,P715,MIAMI,0,0,0,0, ,R191,26,Ramp
-8934780.54730433,2972511.09780544,717,454,277X,WB 836 TO SB 42 AV,48,0,2023,P712,MIAMI,0,0,0,0, ,R188,27,Ramp
-8929276.91220568,2972648.30736603,718,455,267X,WB 836 TO 12 AV,48,0,1952,P418,MIAMI,0,0,0,0, ,R138,24,Ramp
-8928195.15852982,2973759.95370626,719,456,PAUL DUNBAR ELEM,505 NW 20TH ST,54,0,1599,P431,MIAMI,0,0,0,0, ,R140,21,School
-8924779.74315397,2980271.47389406,720,457,PELICAN HARBOR,1275 NE 79TH ST,33,0,75,P131,MIAMI,0,0,0,0, ,R007,8,Marina
-8925577.0103173,2981165.71572213,721,458,PHYLLIS MILLER ELEM,840 NE 87TH ST,54,0,4,P131,MIAMI,0,0,0,0, ,R001,9,School
-8931138.26784197,2969314.78485771,722,459,PIONEER BOARDIN'HOME,2166 SW 14TH TER,53,0,3657,P743,MIAMI,0,0,0,0, ,R255,39,Retirement Home
-8928093.94979719,2973867.25473588,723,460,RAINBOW VILLAGE PK,2099 NW 4TH CT,42,0,1584,P431,MIAMI,0,0,0,0, ,R140,21,Park
-8932907.50152599,2964962.28699279,724,461,RANSOM EVERGLADES,3575 MAIN HWY,54,0,4454,P756,MIAMI,0,0,0,0, ,R330,46,School
-8929768.93452217,2972542.93549149,725,462,RICHARD GERSTEIN,1351 NW 12TH ST,18,0,1965,P417,MIAMI,0,0,0,0, ,R137,24,Court House
-8927558.91823448,2970586.49056759,726,463,RIVERSIDE CENTER,444 SW 2ND AVE,64,0,2838,P445,MIAMI,0,0,0,0, ,R173,36,Office
-8929428.02869859,2970805.68419989,727,464,RIVERSIDE ELEM,1190 SW 2ND ST,54,0,2847,P732,MIAMI,0,0,0,0, ,R243,35,School
-8928663.12281249,2970691.68331558,728,465,RIVERSIDE PK,325 SW 8TH AVE,42,0,2891,P732,MIAMI,0,0,0,0, ,R245,35,Park
-8926926.9620349,2970778.94831569,729,466,RIVERWALK MM STA,88 SE 4TH ST,34,0,2852,P445,MIAMI,0,0,0,0, ,R173,36,MetroMover Station
-8933729.69188906,2972579.0914096,730,467,275X,WB 836 TO 37 AV,48,0,2021,P715,FHP MIAMI,0,0,0,0, ,R182,26,Ramp
-8930976.76213554,2972202.01523671,731,468,270X,WB 836 TOLL PZ,48,0,2084,P735,MIAMI,0,0,0,0, ,R193,25,Ramp
-8928317.34922041,2968321.87987262,732,469,487X,WB RICK CW TO US1,48,0,3890,P741,MIAMI,0,0,0,0, ,R274,37,Ramp
-8929957.07530333,2972304.62174124,733,470,488X,WB 836 AT MIAMI RIVER,48,0,2124,P731,MIAMI,0,0,0,0, ,R196,24,Ramp
-8940008.34905488,2970665.1212398,734,471,ROBERT KING HIGH PK,7025 W FLAGLER ST,54,0,2856,P713,MIAMI,0,0,0,0, ,R218,29,School
-8929883.668159,2971878.22676165,735,472,ROBERT KING HIGH TOW,1403 NW 7TH ST,54,0,2124,P731,MIAMI,0,0,0,0, ,R196,24,School
-8928292.25759587,2971086.30511355,736,473,ROBERT'S DRUGS,590 W FLAGLER ST,19,0,2668,P732,MIAMI,0,0,0,0, ,R245,36,Drug Store
-8925067.56661227,2967564.89953558,737,474,RUSTY PELICAN,3201 RICKENBACKER CSWY,52,0,4222,P741,MIAMI,0,0,0,0, ,R334,52,Restaurant
-8933716.07944298,2968149.01736864,738,475,SEARS,3665 SW 22ND ST,11,0,3903,P744,MIAMI,0,0,0,0, ,R276,40,Business
-8929383.03484497,2976668.85240714,739,476,CRESTWOOD PK,1101 NW 47TH TER,42,0,895,P114,MIAMI,0,0,0,0, ,R064,17,Park
-8927084.59533095,2975896.13124649,740,477,DESIGN DISTRICT,100 NE 39TH ST,11,0,1082,P126,MIAMI,0,0,0,0, ,R078,16,Business
-8926896.21712944,2971372.44960283,741,478,GESU CATHOLIC CHURCH,118 NE 2ND ST,12,0,2496,P446,MIAMI,0,0,0,0, ,R170,36,Church
-8926953.45311328,2971741.64178104,742,479,CENTRAL BAPTIST,500 NE 1ST AVE,12,0,2289,P444,MIAMI,0,0,0,0, ,R165,36,Church
-8926555.26345085,2971630.07384877,743,480,FIRST METHODIST,400 BISCAYNE BLVD,12,0,2325,P446,MIAMI,0,0,0,0, ,R170,36,Church
-8926748.16787373,2970360.32465827,744,481,FIRST PRESBYTERIAN,609 BRICKELL AVE,12,0,3062,P741,MIAMI,0,0,0,0, ,R249,36,Church
-8926078.89057282,2979589.29643988,745,482,VAGABOND MOTEL,7301 BISCAYNE BLVD,28,0,212,P133,MIAMI,0,0,0,0, ,R019,9,Hotel/Motel
-8926136.01066908,2978116.82842554,746,483,SEVEN SEAS MOTEL,5940 BISCAYNE BLVD,28,0,514,P132,MIAMI,0,0,0,0, ,R046,14,Hotel/Motel
-8926058.47101798,2978455.69224903,747,484,SHALIMAR MOTEL,6200 BISCAYNE BLVD,28,0,454,P132,MIAMI,0,0,0,0, ,R028,14,Hotel/Motel
-8931752.72891064,2965828.43945746,748,485,DOUBLETREE HOTEL,2649 BAYSHORE DR,28,0,4404,P752,MIAMI,0,0,0,0, ,R318,45,Hotel/Motel
-8928164.60329337,2968275.12392484,749,486,HAMPTON INN,2500 BRICKELL AVE,28,0,3890,P741,MIAMI,0,0,0,0, ,R274,37,Hotel/Motel
-8926713.98657252,2970435.46768065,750,487,SHERATON BRICKELL,495 BRICKELL AVE,28,0,2978,P741,MIAMI,0,0,0,0, ,R249,36,Hotel/Motel
-8934947.44069608,2972257.849272,751,488,AIRPORT MARRIOTT,1201 LE JEUNE RD,28,0,2023,P712,MIAMI,0,0,0,0, ,R188,27,Hotel/Motel
-8926377.30680588,2973205.78522393,752,489,BISC BAY MARRIOTT,1633 BAYSHORE DR,28,0,1592,P441,MIAMI,0,0,0,0, ,R143,23,Hotel/Motel
-8930229.70628959,2966461.47800698,753,490,GROVE ISLE HOTEL,4 GROVE ISLE DR,28,0,4213, ,MIAMI,0,0,0,0, , ,43,Hotel/Motel
-8927356.46877735,2968898.94339984,754,491,EMMANUEL LUTHERAN,1770 BRICKELL AVE,12,0,3760,P741,MIAMI,0,0,0,0, ,R275,37,Church
-8926954.72532509,2978558.66317252,755,492,KEYSTONE TRAILER PK,6307 NE 2ND AVE,42,0,377,P124,MIAMI,0,0,0,0, ,R037,14,Park
-8930382.73874475,2971845.48050899,756,493,BOWL BAR,1700 NW 7TH ST,63,0,2296,P736,MIAMI,0,0,0,0, ,R211,34,Bar
-8928602.49391516,2973974.35299289,757,494,MOLINA TOWING,2151 NW 7TH AVE,11,0,1568,P418,MIAMI,0,0,0,0, ,R129,21,Business
-8927438.40147344,2971133.43845383,758,495,CAPITAL MALL,145 FLAGLER ST,32,0,2585,P445,MIAMI,0,0,0,0, ,R168,36,Mall
-8927171.68547424,2971141.20139231,759,496,CITY NAT'L BANK BLDG,25 FLAGLER ST,7,0,2579,P446,MIAMI,0,0,0,0, ,R169,36,Bank
-8926908.00772293,2970944.28023452,760,497,MIAMI PRKG LOT 42,195 SE 1ST AVE,43,0,2706,P445,MIAMI,0,0,0,0, ,R172,36,Parking Garage/Lot
-8926699.57417336,2972602.81720526,761,498,MIAMI PRKG LOT 49,250 NE 12TH ST,43,0,1973,P442,MIAMI,0,0,0,0, ,R156,23,Parking Garage/Lot
-8926527.24035117,2971512.60926868,762,499,MIAMI PRKG LOT 19,300 BISCAYNE BLVD,43,0,2371,P446,MIAMI,0,0,0,0, ,R170,36,Parking Garage/Lot
-8928399.50929054,2968391.42192042,763,500,MIAMI PRKG LOT 22,55 SW 26TH RD,43,0,3863,P741,MIAMI,0,0,0,0, ,R274,37,Parking Garage/Lot
-8928399.50929054,2968391.42192042,764,501,MIAMI PRKG LOT 23,55 SE 26TH RD,43,0,3863,P741,MIAMI,0,0,0,0, ,R274,37,Parking Garage/Lot
-8927905.14761277,2970328.75955129,765,502,MIAMI PRKG LOT 28,651 SW 4TH AVE,43,0,3091,P732,MIAMI,0,0,0,0, ,R247,36,Parking Garage/Lot
